<?xml version="1.0" encoding="UTF-8"?>
<kml xmlns="http://www.opengis.net/kml/2.2" xmlns:gx="http://www.google.com/kml/ext/2.2" xmlns:kml="http://www.opengis.net/kml/2.2" xmlns:atom="http://www.w3.org/2005/Atom">
<Document>
	<name>Senza titolo</name>
	<gx:CascadingStyle kml:id="__managed_style_288526F5F6332C55F5E4">
		<Style>
			<IconStyle>
				<scale>1.2</scale>
				<Icon>
					<href>https://earth.google.com/earth/document/icon?color=1976d2&amp;id=2000&amp;scale=4</href>
				</Icon>
				<hotSpot x="64" y="128" xunits="pixels" yunits="insetPixels"/>
			</IconStyle>
			<LabelStyle>
			</LabelStyle>
			<LineStyle>
				<color>ff2dc0fb</color>
				<width>4.8</width>
			</LineStyle>
			<PolyStyle>
				<color>40ffffff</color>
			</PolyStyle>
			<BalloonStyle>
				<displayMode>hide</displayMode>
			</BalloonStyle>
		</Style>
	</gx:CascadingStyle>
	<gx:CascadingStyle kml:id="__managed_style_1ABE6FB293332C55F5E4">
		<Style>
			<IconStyle>
				<Icon>
					<href>https://earth.google.com/earth/document/icon?color=1976d2&amp;id=2000&amp;scale=4</href>
				</Icon>
				<hotSpot x="64" y="128" xunits="pixels" yunits="insetPixels"/>
			</IconStyle>
			<LabelStyle>
			</LabelStyle>
			<LineStyle>
				<color>ff2dc0fb</color>
				<width>3.2</width>
			</LineStyle>
			<PolyStyle>
				<color>40ffffff</color>
			</PolyStyle>
			<BalloonStyle>
				<displayMode>hide</displayMode>
			</BalloonStyle>
		</Style>
	</gx:CascadingStyle>
	<StyleMap id="__managed_style_097511DE56332C55F5E4">
		<Pair>
			<key>normal</key>
			<styleUrl>#__managed_style_1ABE6FB293332C55F5E4</styleUrl>
		</Pair>
		<Pair>
			<key>highlight</key>
			<styleUrl>#__managed_style_288526F5F6332C55F5E4</styleUrl>
		</Pair>
	</StyleMap>
	<Placemark id="0BCE74529B332C55F5DE">
		<name>Parco aspromonte</name>
		<LookAt>
			<longitude>15.15057905109462</longitude>
			<latitude>37.91976008937836</latitude>
			<altitude>607.2527197657041</altitude>
			<heading>315.9306603744988</heading>
			<tilt>0</tilt>
			<gx:fovy>35</gx:fovy>
			<range>384398.3953185752</range>
			<altitudeMode>absolute</altitudeMode>
		</LookAt>
		<styleUrl>#__managed_style_097511DE56332C55F5E4</styleUrl>
		<Polygon>
			<outerBoundaryIs>
				<LinearRing>
					<coordinates>
						15.86011257460392,38.07801506261617,0 15.87635951255502,38.0829611942149,0 15.88372503260749,38.08109386673763,0 15.883862976975,38.09411362513968,0 15.89513381320365,38.09953304993644,0 15.89710527489247,38.10253413739095,0 15.89958062507376,38.10853053386153,0 15.89810731862342,38.1175244851723,0 15.90052062939197,38.11879812364615,0 15.9118288833982,38.11532630915308,0 15.91904751906148,38.10999972047505,0 15.9251306686905,38.102081011484,0 15.92307313268816,38.09645612824396,0 15.92425402687486,38.09316222802876,0 15.91172990446387,38.08588519507414,0 15.93315449181512,38.08313412529614,0 15.94455903662263,38.09416478986712,0 15.93824266208928,38.1072690715198,0 15.94187796071077,38.11300930872473,0 15.95434572334881,38.11340117394587,0 15.96834090131325,38.11829921052494,0 15.96720412688906,38.13749495927375,0 15.94957732268367,38.14470562141051,0 15.93155491666065,38.1585632621557,0 15.9370121150899,38.17485961005962,0 15.97446215288791,38.18687008747309,0 15.99542865148088,38.19445341797589,0 16.01753512076034,38.21758900423028,0 16.03490776954558,38.24285714929312,0 16.0834800216974,38.25303082745582,0 16.23008163344078,38.38527684208425,0 16.27740645882747,38.39244493263718,0 16.3518539778734,38.35829174801363,0 16.3687175265381,38.388259443492,0 16.34622180846986,38.39687968786631,0 16.35336059666968,38.42932871753428,0 16.39609634473019,38.46557694633925,0 16.42370425400281,38.45259287858477,0 16.47002755620472,38.48430143483187,0 16.41198428558234,38.49435931571614,0 16.43171723944534,38.5055604660561,0 16.46389045414772,38.50716186981997,0 16.50625778504849,38.56212810849681,0 16.51759169919971,38.64119806436146,0 16.4797391246789,38.66548766552485,0 16.37445421606344,38.62449626828355,0 16.35675853359427,38.58573674770849,0 16.33327342827747,38.55475829238526,0 16.30366156503856,38.61147560995082,0 16.19948941524404,38.49917996927358,0 16.12942151515485,38.42222062328057,0 16.08172790957975,38.34237058799859,0 16.00321736072676,38.27213822342398,0 15.95233397911341,38.23663260076515,0 15.857885303369,38.20142061137288,0 15.83188648374043,38.16303653586174,0 15.83030940381991,38.13375174935543,0 15.83602963801865,38.11324205690047,0 15.84929572608851,38.10654576641406,0 15.8581970580848,38.10888828811139,0 15.84756589840945,38.10165164374699,0 15.84599980277812,38.09581559420729,0 15.85265606693253,38.09604324652886,0 15.86294446834697,38.10022880751874,0 15.87655260374012,38.10229089469946,0 15.86011257460392,38.07801506261617,0 
					</coordinates>
				</LinearRing>
			</outerBoundaryIs>
		</Polygon>
	</Placemark>
</Document>
</kml>
