<?xml version="1.0" encoding="utf-8" ?>
<kml xmlns="http://www.opengis.net/kml/2.2">
<Document id="root_doc">
<Schema name="WDPA_WDOECM_Aug2025_Public_719_shp_polygons" id="WDPA_WDOECM_Aug2025_Public_719_shp_polygons">
	<SimpleField name="Description" type="string"></SimpleField>
	<SimpleField name="WDPAID" type="float"></SimpleField>
	<SimpleField name="WDPA_PID" type="string"></SimpleField>
	<SimpleField name="PA_DEF" type="string"></SimpleField>
	<SimpleField name="ORIG_NAME" type="string"></SimpleField>
	<SimpleField name="DESIG_ENG" type="string"></SimpleField>
	<SimpleField name="DESIG_TYPE" type="string"></SimpleField>
	<SimpleField name="IUCN_CAT" type="string"></SimpleField>
	<SimpleField name="INT_CRIT" type="string"></SimpleField>
	<SimpleField name="MARINE" type="string"></SimpleField>
	<SimpleField name="REP_M_AREA" type="float"></SimpleField>
	<SimpleField name="GIS_M_AREA" type="float"></SimpleField>
	<SimpleField name="REP_AREA" type="float"></SimpleField>
	<SimpleField name="GIS_AREA" type="float"></SimpleField>
	<SimpleField name="NO_TAKE" type="string"></SimpleField>
	<SimpleField name="NO_TK_AREA" type="float"></SimpleField>
	<SimpleField name="STATUS" type="string"></SimpleField>
	<SimpleField name="STATUS_YR" type="int"></SimpleField>
	<SimpleField name="GOV_TYPE" type="string"></SimpleField>
	<SimpleField name="OWN_TYPE" type="string"></SimpleField>
	<SimpleField name="MANG_AUTH" type="string"></SimpleField>
	<SimpleField name="MANG_PLAN" type="string"></SimpleField>
	<SimpleField name="VERIF" type="string"></SimpleField>
	<SimpleField name="METADATAID" type="int"></SimpleField>
	<SimpleField name="SUB_LOC" type="string"></SimpleField>
	<SimpleField name="PARENT_ISO" type="string"></SimpleField>
	<SimpleField name="ISO3" type="string"></SimpleField>
	<SimpleField name="SUPP_INFO" type="string"></SimpleField>
	<SimpleField name="CONS_OBJ" type="string"></SimpleField>
</Schema>
<Folder><name>WDPA_WDOECM_Aug2025_Public_719_shp_polygons</name>
  <Placemark>
	<name>Parco nazionale dell'Abruzzo, Lazio e Molise</name>
	<description>Parco Nazionale</description>
	<Style><LineStyle><color>ff0000ff</color></LineStyle><PolyStyle><fill>0</fill></PolyStyle></Style>
	<ExtendedData><SchemaData schemaUrl="#WDPA_WDOECM_Aug2025_Public_719_shp_polygons">
		<SimpleData name="WDPAID">719.000000000000000</SimpleData>
		<SimpleData name="WDPA_PID">719</SimpleData>
		<SimpleData name="PA_DEF">1</SimpleData>
		<SimpleData name="ORIG_NAME">Parco nazionale dell'Abruzzo, Lazio e Molise</SimpleData>
		<SimpleData name="DESIG_ENG">National Park</SimpleData>
		<SimpleData name="DESIG_TYPE">National</SimpleData>
		<SimpleData name="IUCN_CAT">II</SimpleData>
		<SimpleData name="INT_CRIT">Not Applicable</SimpleData>
		<SimpleData name="MARINE">0</SimpleData>
		<SimpleData name="REP_M_AREA">0.000000000000000</SimpleData>
		<SimpleData name="GIS_M_AREA">0.000000000000000</SimpleData>
		<SimpleData name="REP_AREA">496.800000000000011</SimpleData>
		<SimpleData name="GIS_AREA">507.103061270392004</SimpleData>
		<SimpleData name="NO_TAKE">Not Applicable</SimpleData>
		<SimpleData name="NO_TK_AREA">0.000000000000000</SimpleData>
		<SimpleData name="STATUS">Designated</SimpleData>
		<SimpleData name="STATUS_YR">1923</SimpleData>
		<SimpleData name="GOV_TYPE">Federal or national ministry or agency</SimpleData>
		<SimpleData name="OWN_TYPE">Not Reported</SimpleData>
		<SimpleData name="MANG_AUTH">Ministero dell'Ambiente e della Tutela del Territorio e del Mare</SimpleData>
		<SimpleData name="MANG_PLAN">Not Reported</SimpleData>
		<SimpleData name="VERIF">State Verified</SimpleData>
		<SimpleData name="METADATAID">2013</SimpleData>
		<SimpleData name="SUB_LOC">Not Reported</SimpleData>
		<SimpleData name="PARENT_ISO">ITA</SimpleData>
		<SimpleData name="ISO3">ITA</SimpleData>
		<SimpleData name="SUPP_INFO">Not Applicable</SimpleData>
		<SimpleData name="CONS_OBJ">Not Applicable</SimpleData>
	</SchemaData></ExtendedData>
      <Polygon><outerBoundaryIs><LinearRing><coordinates>13.6496300000001,41.8109419990001 13.648959,41.810894999 13.648425,41.8109469990001 13.6481220000001,41.810975999 13.647368,41.811227999 13.6470640000001,41.811502999 13.6469710000001,41.8118719990001 13.646913,41.8122939990001 13.6466580000001,41.812867999 13.64647,41.8131089990001 13.646349,41.813412999 13.646371,41.813953999 13.6465680000001,41.8146859990001 13.6466970000001,41.8152009990001 13.6467190000001,41.8152459990001 13.6469980000001,41.8158349990001 13.6474180000001,41.816514999 13.647974,41.817106999 13.6483020000001,41.817461999 13.648577,41.8178079990001 13.6485730000001,41.818563999 13.6487240000001,41.8191249990001 13.6490380000001,41.819605999 13.6491050000001,41.8196599990001 13.6496500000001,41.820116999 13.650177,41.8206549990001 13.6505290000001,41.821018999 13.650629,41.821154999 13.650716,41.8212649990001 13.650793,41.8214189990001 13.650808,41.821454999 13.6510190000001,41.8216909990001 13.651325,41.8220279990001 13.6516980000001,41.8224109990001 13.652269,41.8230119990001 13.652365,41.823075999 13.652925,41.823568999 13.653756,41.8240559990001 13.6541130000001,41.8243039990001 13.654209,41.8243679990001 13.6548710000001,41.8250149990001 13.6551920000001,41.8251719990001 13.6551840000001,41.8262799990001 13.655381,41.8266599990001 13.6558210000001,41.8274219990001 13.656079,41.827685999 13.6565570000001,41.8285739990001 13.6566700000001,41.829079999 13.6569860000001,41.8292459990001 13.6577290000001,41.829398999 13.658086,41.8294299990001 13.6582290000001,41.8294129990001 13.659369,41.829552999 13.6597590000001,41.8297189990001 13.659773,41.829890999 13.661192,41.8308709990001 13.6612920000001,41.8308719990001 13.6612880000001,41.8309349990001 13.6612650000001,41.831420999 13.661238,41.8320149990001 13.660379,41.832347999 13.6604820000001,41.833068999 13.6612730000001,41.8338709990001 13.661392,41.833926999 13.661529,41.8340719990001 13.661665,41.834235999 13.6618330000001,41.8345169990001 13.6620530000001,41.834870999 13.6623040000001,41.835206999 13.6625770000001,41.8355349990001 13.6631110000001,41.8358649990001 13.663487,41.8361129990001 13.663729,41.836493999 13.663865,41.836854999 13.6641320000001,41.8371289990001 13.6642590000001,41.837255999 13.6644910000001,41.8371509990001 13.6645770000001,41.8370889990001 13.664883,41.836830999 13.665015,41.8367249990001 13.665605,41.8364519990001 13.6660460000001,41.836267999 13.666349,41.8361189990001 13.666732,41.8358439990001 13.6670990000001,41.8355509990001 13.667512,41.8352589990001 13.6679120000001,41.834938999 13.668031,41.8347959990001 13.6683130000001,41.834555999 13.6685640000001,41.8343159990001 13.6687450000001,41.834128999 13.668774,41.834101999 13.6689240000001,41.8339779990001 13.6692190000001,41.8335309990001 13.670102,41.8331719990001 13.670425,41.833094999 13.670484,41.8320239990001 13.670645,41.831988999 13.670731,41.8318459990001 13.6711490000001,41.8309599990001 13.671257,41.8308889990001 13.6714180000001,41.830881999 13.671548,41.830882999 13.6716940000001,41.830884999 13.6718310000001,41.8308769990001 13.6720250000001,41.8307359990001 13.6720250000001,41.8304649990001 13.6720260000001,41.8304199990001 13.672219,41.8301789990001 13.6734470000001,41.8299319990001 13.6737380000001,41.829827999 13.67488,41.8297869990001 13.6750940000001,41.829752999 13.675147,41.8297899990001 13.6751860000001,41.829798999 13.6752920000001,41.8299539990001 13.6752890000001,41.830322999 13.675288,41.8306919990001 13.675218,41.830879999 13.6751560000001,41.830879999 13.675172,41.8308979990001 13.67517,41.8310779990001 13.675191,41.8315469990001 13.675172,41.832032999 13.675211,41.832032999 13.675264,41.832141999 13.675214,41.8328799990001 13.6750890000001,41.833094999 13.6750730000001,41.833138999 13.6750740000001,41.8331749990001 13.6750420000001,41.833453999 13.6748860000001,41.8340019990001 13.6748850000001,41.834010999 13.674883,41.8340289990001 13.674837,41.834370999 13.6749130000001,41.8343899990001 13.6749740000001,41.8344079990001 13.6754090000001,41.8344309990001 13.6760840000001,41.8346369990001 13.6762810000001,41.834729999 13.6764180000001,41.8347489990001 13.676593,41.8347959990001 13.676677,41.834805999 13.676905,41.8348629990001 13.6772530000001,41.8350199990001 13.6775230000001,41.8351759990001 13.6782010000001,41.8353279990001 13.6785810000001,41.8353949990001 13.6787790000001,41.8354159990001 13.6790550000001,41.8354009990001 13.6799370000001,41.835338999 13.6806330000001,41.8353469990001 13.6814190000001,41.835409999 13.6820740000001,41.835525999 13.682889,41.835705999 13.6832220000001,41.8358089990001 13.6838450000001,41.835995999 13.6842830000001,41.8361899990001 13.6843050000001,41.8362089990001 13.685005,41.8363699990001 13.68573,41.836692999 13.686318,41.837032999 13.68676,41.8373539990001 13.6873570000001,41.8379369990001 13.687663,41.838219999 13.68807,41.8387019990001 13.688767,41.8392499990001 13.6893690000001,41.8396079990001 13.689732,41.8397379990001 13.690319,41.8398349990001 13.6908980000001,41.8398959990001 13.691943,41.8400609990001 13.692351,41.8402369990001 13.6929900000001,41.8403699990001 13.6932430000001,41.8403549990001 13.693807,41.8404419990001 13.6944970000001,41.8406479990001 13.694825,41.840741999 13.6952440000001,41.840791999 13.695861,41.840879999 13.6963020000001,41.840992999 13.6968410000001,41.8411609990001 13.6973400000001,41.8413469990001 13.6979010000001,41.841578999 13.6983090000001,41.841753999 13.6986170000001,41.8419469990001 13.698836,41.8420579990001 13.699131,41.8422139990001 13.699646,41.8423819990001 13.7000790000001,41.8424949990001 13.700726,41.842888999 13.7014830000001,41.843203999 13.7016770000001,41.843377999 13.7016570000001,41.8433869990001 13.701937,41.8436419990001 13.701043,41.843894999 13.6997440000001,41.8444029990001 13.698139,41.8451279990001 13.6962150000001,41.846145999 13.6947040000001,41.847029999 13.693477,41.8475339990001 13.692731,41.847656999 13.6917490000001,41.8478199990001 13.690345,41.8481149990001 13.689134,41.8484799990001 13.6884830000001,41.8490399990001 13.688388,41.849299999 13.6882410000001,41.849702999 13.6881500000001,41.8506389990001 13.687797,41.851440999 13.6876310000001,41.851546999 13.6870030000001,41.8519499990001 13.686272,41.8523739990001 13.6860150000001,41.852523999 13.685053,41.8535849990001 13.684084,41.8550329990001 13.6830440000001,41.8564529990001 13.682805,41.8567459990001 13.6838240000001,41.8569189990001 13.6845020000001,41.857042999 13.6852180000001,41.8571509990001 13.685866,41.857274999 13.6869770000001,41.8575039990001 13.6883750000001,41.857879999 13.690119,41.858214999 13.690911,41.8583599990001 13.6919980000001,41.8586329990001 13.6928560000001,41.858867999 13.693427,41.8589919990001 13.6944760000001,41.859228999 13.695007,41.8594149990001 13.695325,41.859544999 13.6960740000001,41.8598769990001 13.696874,41.8603009990001 13.697395,41.860576999 13.698473,41.8611739990001 13.69888,41.861385999 13.699098,41.8615599990001 13.699466,41.861815999 13.699985,41.862136999 13.700525,41.8625309990001 13.7012100000001,41.862961999 13.70154,41.8631999990001 13.7017290000001,41.863282999 13.7017900000001,41.8652559990001 13.701825,41.868192999 13.701645,41.8683349990001 13.701556,41.868486999 13.701468,41.8686299990001 13.7013250000001,41.8688349990001 13.701196,41.869040999 13.7011150000001,41.8692109990001 13.700924,41.869469999 13.7008070000001,41.869828999 13.7007,41.8701159990001 13.7005280000001,41.8705019990001 13.7001680000001,41.871091999 13.7000170000001,41.871296999 13.699841,41.8715299990001 13.6997010000001,41.871635999 13.6994300000001,41.8717589990001 13.699128,41.8721429990001 13.6989840000001,41.8723929990001 13.698696,41.872578999 13.698496,41.8728559990001 13.6982830000001,41.873348999 13.6981060000001,41.8736709990001 13.697708,41.874224999 13.6973560000001,41.8745279990001 13.6970250000001,41.8748389990001 13.696806,41.875034999 13.6965530000001,41.875301999 13.696518,41.8754729990001 13.6965210000001,41.875643999 13.6968390000001,41.875755999 13.6971310000001,41.8757229990001 13.697555,41.8756289990001 13.697842,41.875487999 13.6981060000001,41.875373999 13.698222,41.8753119990001 13.6984870000001,41.8751619990001 13.698834,41.8750669990001 13.6991650000001,41.874961999 13.6995210000001,41.8748669990001 13.699892,41.8747269990001 13.7001690000001,41.8746859990001 13.700476,41.8746439990001 13.7008210000001,41.8746119990001 13.7011430000001,41.8745979990001 13.701489,41.874564999 13.7016550000001,41.8745309990001 13.7016560000001,41.874467999 13.7020650000001,41.874112999 13.7022440000001,41.874024999 13.702461,41.8739639990001 13.7030270000001,41.8737449990001 13.7034130000001,41.8736499990001 13.703813,41.873618999 13.704144,41.8735779990001 13.704907,41.8734239990001 13.705278,41.873346999 13.7055080000001,41.8733319990001 13.706331,41.873439999 13.7068780000001,41.8735809990001 13.7073530000001,41.873820999 13.707994,41.874106999 13.709014,41.874316999 13.7095190000001,41.8743229990001 13.7096240000001,41.8746119990001 13.709637,41.8747109990001 13.709816,41.875280999 13.710004,41.875840999 13.710089,41.876066999 13.7102140000001,41.876455999 13.7103440000001,41.876880999 13.710494,41.8772249990001 13.710581,41.8773699990001 13.710904,41.8780219990001 13.7111800000001,41.878700999 13.711305,41.879313999 13.711514,41.879676999 13.711852,41.880328999 13.7120150000001,41.880726999 13.7124400000001,41.8815249990001 13.7125800000001,41.8817059990001 13.712676,41.881806999 13.712947,41.8824039990001 13.7129390000001,41.882844999 13.7128960000001,41.883456999 13.712818,41.8837359990001 13.7125610000001,41.8840749990001 13.712703,41.884652999 13.712766,41.885031999 13.7126240000001,41.8853819990001 13.712473,41.8859829990001 13.712316,41.886557999 13.7124670000001,41.8871089990001 13.7126440000001,41.887777999 13.7127790000001,41.8880579990001 13.712904,41.8884379990001 13.712858,41.8891129990001 13.712751,41.889552999 13.71264,41.890145999 13.712594,41.890361999 13.712662,41.890614999 13.7126440000001,41.890947999 13.7125300000001,41.8915769990001 13.7121960000001,41.8921769990001 13.711961,41.893002999 13.7117480000001,41.8936399990001 13.711714,41.893747999 13.7119730000001,41.894443999 13.7123570000001,41.8949079990001 13.7124710000001,41.895385999 13.712383,41.8957179990001 13.7125330000001,41.896305999 13.7130500000001,41.8968339990001 13.7138120000001,41.897436999 13.714499,41.8979669990001 13.7145820000001,41.898003999 13.715601,41.8984649990001 13.7159790000001,41.898604999 13.7171010000001,41.898968999 13.7177320000001,41.899146999 13.7194860000001,41.8993639990001 13.721011,41.899371999 13.7222790000001,41.899278999 13.723219,41.8990909990001 13.7243270000001,41.898742999 13.724842,41.8987129990001 13.725157,41.898895999 13.725586,41.8991349990001 13.726615,41.899776999 13.727895,41.9004399990001 13.7290780000001,41.9010469990001 13.7296000000001,41.901466999 13.730131,41.9018779990001 13.7310350000001,41.9025369990001 13.7315980000001,41.902911999 13.7324840000001,41.9034539990001 13.7330670000001,41.9037029990001 13.7338940000001,41.903693999 13.734761,41.903694999 13.734965,41.9037329990001 13.735875,41.9038149990001 13.7377240000001,41.903744999 13.7380600000001,41.903715999 13.738054,41.903757999 13.7383390000001,41.903713999 13.738368,41.9047189990001 13.7383350000001,41.905739999 13.738254,41.9067479990001 13.7379970000001,41.907632999 13.7377760000001,41.9083419990001 13.737604,41.909122999 13.737493,41.9098969990001 13.737486,41.910940999 13.737442,41.9118959990001 13.7370940000001,41.9142869990001 13.736791,41.917381999 13.7369820000001,41.9181409990001 13.7368670000001,41.9189729990001 13.736607,41.9200099990001 13.736502,41.921008999 13.7362910000001,41.9219609990001 13.7359220000001,41.9229839990001 13.73567,41.9241069990001 13.735578,41.9250699990001 13.735605,41.9260879990001 13.735648,41.9270339990001 13.7358580000001,41.9279819990001 13.7359250000001,41.9288609990001 13.73596,41.929540999 13.736007,41.9301809990001 13.736028,41.931054999 13.7360390000001,41.9314199990001 13.736047,41.931860999 13.736203,41.9324979990001 13.736391,41.933345999 13.7364210000001,41.934881999 13.736069,41.9362339990001 13.7358160000001,41.9374559990001 13.7359000000001,41.938703999 13.736094,41.9405209990001 13.73637,41.941748999 13.7364700000001,41.9429029990001 13.73684,41.944153999 13.736841,41.9441589990001 13.7368510000001,41.9441659990001 13.7376110000001,41.945013999 13.738299,41.9459399990001 13.7383080000001,41.945952999 13.738214,41.945977999 13.7377020000001,41.946114999 13.7353390000001,41.947188999 13.733125,41.948320999 13.7332250000001,41.948970999 13.73355,41.949763999 13.733594,41.9497949990001 13.7337690000001,41.9505989990001 13.733865,41.9510369990001 13.7336750000001,41.952006999 13.7338590000001,41.952262999 13.733889,41.9526579990001 13.733755,41.953700999 13.733592,41.9543189990001 13.733421,41.9553039990001 13.7336250000001,41.9564629990001 13.73346,41.957165999 13.733435,41.9584349990001 13.7334900000001,41.9594789990001 13.733958,41.960612999 13.734026,41.960696999 13.7339940000001,41.960697999 13.733618,41.962526999 13.7337890000001,41.9634589990001 13.73355,41.964076999 13.733845,41.9644469990001 13.73384,41.9646729990001 13.733794,41.965094999 13.7338080000001,41.966307999 13.7340590000001,41.966959999 13.7341200000001,41.967721999 13.734223,41.9682299990001 13.735999,41.9682499990001 13.735777,41.969911999 13.7356140000001,41.9705019990001 13.735604,41.971009999 13.7363950000001,41.9711589990001 13.737133,41.972069999 13.7368530000001,41.9728279990001 13.7364620000001,41.9735009990001 13.736437,41.973559999 13.736386,41.9735279990001 13.735755,41.972928999 13.7353440000001,41.972698999 13.7350480000001,41.9723569990001 13.7348890000001,41.9722869990001 13.7342620000001,41.9720099990001 13.733774,41.9718359990001 13.7331380000001,41.971489999 13.7328640000001,41.9719669990001 13.7327940000001,41.972209999 13.7326210000001,41.972809999 13.7323660000001,41.9742169990001 13.732174,41.9743839990001 13.730889,41.974369999 13.7302080000001,41.974390999 13.7296420000001,41.9743559990001 13.729067,41.974772999 13.7290610000001,41.9748749990001 13.7290180000001,41.974818999 13.7285810000001,41.975447999 13.728347,41.975559999 13.7282310000001,41.975558999 13.7278420000001,41.9757269990001 13.727108,41.9757769990001 13.7265590000001,41.9762029990001 13.7258170000001,41.976683999 13.7249600000001,41.977048999 13.7245730000001,41.9771309990001 13.723604,41.9773499990001 13.7227970000001,41.9771969990001 13.722716,41.9777169990001 13.722672,41.977627999 13.722877,41.9789539990001 13.722745,41.9797589990001 13.722271,41.980329999 13.721953,41.980786999 13.7217830000001,41.981590999 13.721072,41.9823889990001 13.720872,41.9827329990001 13.719732,41.9837849990001 13.7191350000001,41.9846709990001 13.718129,41.9857969990001 13.7182780000001,41.986057999 13.7173950000001,41.9877469990001 13.716885,41.988143999 13.716441,41.989117999 13.715453,41.990287999 13.715991,41.9904089990001 13.716059,41.9908419990001 13.715696,41.9916439990001 13.7151030000001,41.9923279990001 13.7150770000001,41.995552999 13.71504,41.9956499990001 13.715038,41.995551999 13.7146080000001,41.9958349990001 13.7140600000001,41.996231999 13.7125790000001,41.9969349990001 13.711913,41.9973889990001 13.711081,41.9984449990001 13.710112,41.998663999 13.7099210000001,41.998574999 13.7101210000001,41.998231999 13.7096260000001,41.9979099990001 13.709009,41.997873999 13.7089310000001,41.9979019990001 13.7078470000001,41.998033999 13.7071120000001,41.998140999 13.706331,41.998592999 13.7056020000001,41.9983829990001 13.704753,41.998344999 13.704217,41.9981369990001 13.702231,42.0006499990001 13.7027570000001,42.0015989990001 13.703566,42.002488999 13.7039310000001,42.003230999 13.703809,42.003229999 13.7037980000001,42.003793999 13.704389,42.0044769990001 13.7041110000001,42.0050939990001 13.704372,42.005322999 13.7044030000001,42.0056339990001 13.7051520000001,42.005980999 13.7053760000001,42.0061519990001 13.705522,42.006407999 13.705634,42.0064649990001 13.7066150000001,42.006588999 13.706651,42.006673999 13.7072880000001,42.0069349990001 13.7071300000001,42.0072999990001 13.7067050000001,42.0077469990001 13.7063230000001,42.007939999 13.7058240000001,42.008300999 13.7058220000001,42.008384999 13.7065010000001,42.008477999 13.7072210000001,42.0083729990001 13.707749,42.0084629990001 13.7080510000001,42.008494999 13.709304,42.008226999 13.710177,42.008095999 13.7107800000001,42.008158999 13.711306,42.008361999 13.711716,42.0086489990001 13.711935,42.0090459990001 13.7120360000001,42.0096399990001 13.7121070000001,42.0098659990001 13.7122590000001,42.0098679990001 13.7123360000001,42.009783999 13.7124160000001,42.009558999 13.712683,42.009449999 13.7131000000001,42.009397999 13.713742,42.0094329990001 13.713876,42.009535999 13.713891,42.009554999 13.71389,42.0096129990001 13.713788,42.009964999 13.7138380000001,42.0100419990001 13.714768,42.010052999 13.7153280000001,42.010482999 13.7153660000001,42.011138999 13.715787,42.010796999 13.717008,42.009152999 13.717902,42.008391999 13.7184270000001,42.0079739990001 13.7187920000001,42.007823999 13.720313,42.0066849990001 13.7206860000001,42.006110999 13.721532,42.0051569990001 13.7232690000001,42.0035579990001 13.7238390000001,42.0034869990001 13.724363,42.0031069990001 13.725717,42.002582999 13.7257250000001,42.002197999 13.725847,42.001273999 13.725335,42.0010369990001 13.725493,42.000663999 13.7261770000001,42.0002759990001 13.727019,41.999475999 13.7280680000001,41.9987159990001 13.7288090000001,41.9977999990001 13.729496,41.997036999 13.7303910000001,41.9961989990001 13.731744,41.995279999 13.732067,41.995060999 13.732445,41.9942559990001 13.7330220000001,41.993799999 13.7332890000001,41.9933789990001 13.7339710000001,41.9928469990001 13.7345560000001,41.9920049990001 13.735965,41.9912889990001 13.736392,41.990560999 13.737081,41.989720999 13.737605,41.9893029990001 13.737849,41.9893509990001 13.738255,41.989495999 13.738273,41.9895029990001 13.7386300000001,41.9897379990001 13.7388310000001,41.9900099990001 13.7397500000001,41.990558999 13.7399530000001,41.990753999 13.741838,41.992084999 13.743364,41.9933349990001 13.7444330000001,41.994117999 13.74533,41.9950759990001 13.745325,41.9953439990001 13.745956,41.995377999 13.747265,41.9949769990001 13.748025,41.9940979990001 13.7485540000001,41.993659999 13.7488440000001,41.9940509990001 13.7496360000001,41.993477999 13.7503140000001,41.992985999 13.750839,41.992741999 13.7517050000001,41.992196999 13.752394,41.9911509990001 13.7524690000001,41.9911519990001 13.7526110000001,41.991457999 13.7531460000001,41.990714999 13.7537070000001,41.990554999 13.754784,41.9905949990001 13.7550360000001,41.990984999 13.7551750000001,41.9915139990001 13.755163,41.9920959990001 13.7560040000001,41.992825999 13.7572000000001,41.9943909990001 13.7577850000001,41.994896999 13.7584860000001,41.9951539990001 13.7594100000001,41.9954129990001 13.7601070000001,41.995864999 13.760699,41.9960099990001 13.761669,41.9958539990001 13.762005,41.9957459990001 13.7622680000001,41.9953679990001 13.762499,41.9952249990001 13.7627620000001,41.995060999 13.763586,41.9947099990001 13.7637320000001,41.994877999 13.7642660000001,41.996075999 13.765584,41.9971159990001 13.7663150000001,41.997760999 13.7670910000001,41.9979919990001 13.76744,41.9972739990001 13.768241,41.9961739990001 13.768225,41.996135999 13.768228,41.9961329990001 13.768316,41.995663999 13.7684790000001,41.995400999 13.7692240000001,41.9935569990001 13.769958,41.989200999 13.769886,41.988817999 13.770922,41.9861539990001 13.7723560000001,41.9832889990001 13.7732770000001,41.9825059990001 13.774438,41.981547999 13.775381,41.9796479990001 13.776806,41.9771659990001 13.776846,41.9771649990001 13.7783880000001,41.9748299990001 13.779548,41.9697579990001 13.7775760000001,41.968869999 13.7773800000001,41.966780999 13.781437,41.9646779990001 13.783467,41.9635239990001 13.785494,41.962545999 13.7875690000001,41.9611579990001 13.7863610000001,41.9604689990001 13.784794,41.9600109990001 13.783895,41.9595199990001 13.7835860000001,41.959351999 13.7831170000001,41.959736999 13.7821480000001,41.958968999 13.7834070000001,41.9572939990001 13.7831560000001,41.957232999 13.783234,41.957143999 13.7815900000001,41.956626999 13.7808140000001,41.956580999 13.780738,41.956382999 13.7805290000001,41.9559799990001 13.7801680000001,41.955295999 13.77959,41.9546099990001 13.778445,41.9538679990001 13.777256,41.952954999 13.7769900000001,41.9523799990001 13.777317,41.9516399990001 13.77768,41.9509599990001 13.7776270000001,41.949941999 13.7776910000001,41.9491139990001 13.7779,41.9483319990001 13.777879,41.947503999 13.7775510000001,41.946400999 13.777044,41.9451349990001 13.7765380000001,41.9438279990001 13.775903,41.942330999 13.775384,41.9411089990001 13.7749260000001,41.939789999 13.775085,41.939065999 13.7756680000001,41.938252999 13.776007,41.9374949990001 13.7760950000001,41.936748999 13.7763130000001,41.936066999 13.777099,41.935259999 13.777179,41.935170999 13.7773570000001,41.935007999 13.777495,41.9348179990001 13.77779,41.9344879990001 13.7783630000001,41.933593999 13.778754,41.9330859990001 13.7791530000001,41.932690999 13.7801210000001,41.9314669990001 13.782139,41.9308999990001 13.784273,41.9304519990001 13.7852300000001,41.929815999 13.786104,41.9294139990001 13.7872190000001,41.9287199990001 13.788014,41.9282879990001 13.78822,41.9282439990001 13.7889960000001,41.9281309990001 13.78981,41.9277979990001 13.791324,41.926768999 13.7930200000001,41.9257689990001 13.793192,41.925641999 13.7933650000001,41.925558999 13.793393,41.925558999 13.7934990000001,41.925464999 13.793866,41.9251389990001 13.7947330000001,41.9244899990001 13.7964260000001,41.922989999 13.797898,41.921595999 13.799381,41.9203279990001 13.8002680000001,41.9193599990001 13.8006110000001,41.9183909990001 13.800752,41.917360999 13.8011940000001,41.9162449990001 13.801836,41.915539999 13.8028650000001,41.914590999 13.803928,41.913867999 13.8051350000001,41.913150999 13.8059660000001,41.912515999 13.806695,41.9115829990001 13.806973,41.910900999 13.807325,41.9101659990001 13.8076570000001,41.9098539990001 13.8092070000001,41.909455999 13.8098880000001,41.9090849990001 13.8109450000001,41.908690999 13.8121100000001,41.9083019990001 13.8130330000001,41.907928999 13.813481,41.9077129990001 13.814395,41.907275999 13.815614,41.9065909990001 13.816359,41.906084999 13.817006,41.9056189990001 13.817933,41.9050069990001 13.8186890000001,41.904532999 13.819508,41.903986999 13.8202160000001,41.903512999 13.820911,41.9030789990001 13.821427,41.902570999 13.821847,41.9019709990001 13.822276,41.901628999 13.8228770000001,41.901085999 13.8233940000001,41.9005149990001 13.8238250000001,41.899978999 13.824147,41.899481999 13.8242750000001,41.899145999 13.8243870000001,41.8989309990001 13.8245830000001,41.8987349990001 13.824124,41.8980769990001 13.823942,41.8974759990001 13.8238020000001,41.8966779990001 13.8237290000001,41.8960329990001 13.823881,41.895615999 13.824424,41.894985999 13.824667,41.8941379990001 13.824761,41.893651999 13.8250200000001,41.8933529990001 13.8259580000001,41.892794999 13.826445,41.8925209990001 13.827102,41.8921589990001 13.8289800000001,41.890997999 13.8301990000001,41.890230999 13.8315240000001,41.8890329990001 13.832613,41.8880809990001 13.834004,41.8871129990001 13.8349850000001,41.8862579990001 13.8353970000001,41.8854209990001 13.836035,41.884845999 13.8370840000001,41.8841359990001 13.837572,41.8837759990001 13.8368570000001,41.8807469990001 13.836799,41.880570999 13.8369270000001,41.880171999 13.837204,41.8794989990001 13.8370640000001,41.879240999 13.8371520000001,41.8782209990001 13.8375140000001,41.878049999 13.838066,41.8777039990001 13.8386370000001,41.877222999 13.839079,41.876678999 13.839392,41.876383999 13.839823,41.876271999 13.8403280000001,41.875997999 13.8409770000001,41.8757249990001 13.841331,41.8756299990001 13.8415650000001,41.875487999 13.841822,41.8749949990001 13.8421520000001,41.874340999 13.8425130000001,41.8739929990001 13.843105,41.8735579990001 13.8437890000001,41.8731139990001 13.8447200000001,41.8726099990001 13.845519,41.8721409990001 13.846368,41.871590999 13.846601,41.8714219990001 13.8472540000001,41.8710149990001 13.848085,41.870509999 13.8486730000001,41.870217999 13.8492400000001,41.8702329990001 13.8497830000001,41.870219999 13.850305,41.8701809990001 13.8505220000001,41.870083999 13.8508210000001,41.8697349990001 13.8510660000001,41.8694229990001 13.851259,41.8693529990001 13.8518480000001,41.8693759990001 13.8526610000001,41.8692859990001 13.8532020000001,41.8693989990001 13.853688,41.8695119990001 13.854454,41.8695019990001 13.855148,41.869003999 13.8553460000001,41.8683759990001 13.855555,41.868007999 13.855979,41.867534999 13.8564050000001,41.8670349990001 13.856679,41.866452999 13.856777,41.865912999 13.856816,41.8654989990001 13.856859,41.865012999 13.8568760000001,41.8646619990001 13.856841,41.864156999 13.8567410000001,41.8639219990001 13.856525,41.8636319990001 13.85632,41.8632879990001 13.856181,41.863033999 13.856033,41.8628159990001 13.855667,41.8624349990001 13.855269,41.8621059990001 13.854929,41.8619409990001 13.8545810000001,41.861792999 13.8545760000001,41.8616669990001 13.854883,41.861012999 13.855191,41.8606549990001 13.8555870000001,41.860379999 13.8558800000001,41.8603199990001 13.8563980000001,41.860396999 13.8570510000001,41.8606109990001 13.8576,41.860669999 13.8579520000001,41.860421999 13.858279,41.8598039990001 13.858413,41.859336999 13.8583130000001,41.8590649990001 13.8584220000001,41.858354999 13.858621,41.857716999 13.858644,41.8574199990001 13.8584470000001,41.857021999 13.858661,41.856681999 13.8586500000001,41.8565199990001 13.8584090000001,41.8563549990001 13.8583130000001,41.8559489990001 13.8581520000001,41.8559109990001 13.8581510000001,41.855622999 13.858054,41.855270999 13.8579300000001,41.8546749990001 13.8577940000001,41.854295999 13.8571390000001,41.853874999 13.856883,41.8537009990001 13.8566670000001,41.8534739990001 13.8570300000001,41.852990999 13.8573730000001,41.8527059990001 13.857716,41.8524849990001 13.8578680000001,41.8524859990001 13.858327,41.852517999 13.8586950000001,41.8525029990001 13.8591730000001,41.8523729990001 13.8595,41.851781999 13.859628,41.8512519990001 13.8596440000001,41.8505939990001 13.8595490000001,41.850115999 13.85947,41.849565999 13.8594820000001,41.849385999 13.859726,41.8487939990001 13.8598440000001,41.848353999 13.8598940000001,41.847840999 13.860039,41.847544999 13.8602750000001,41.847276999 13.8606130000001,41.846892999 13.8611040000001,41.846555999 13.861589,41.846416999 13.862012,41.8463399990001 13.862337,41.8464779990001 13.8626400000001,41.846624999 13.86317,41.846846999 13.8635780000001,41.847048999 13.863864,41.847249999 13.864383,41.8476239990001 13.864671,41.847743999 13.865012,41.847882999 13.865596,41.848058999 13.8658080000001,41.8481429990001 13.8663710000001,41.848246999 13.8669580000001,41.848378999 13.8676790000001,41.8486109990001 13.8682390000001,41.8488779990001 13.868723,41.8491529990001 13.8695540000001,41.8495399990001 13.870053,41.8497609990001 13.8706,41.8499189990001 13.8711220000001,41.8501669990001 13.8715020000001,41.850269999 13.8721200000001,41.8503659990001 13.8730430000001,41.8504659990001 13.8737320000001,41.850444999 13.874534,41.8504799990001 13.8751600000001,41.8505669990001 13.8758980000001,41.8507549990001 13.8764180000001,41.8507329990001 13.876804,41.850627999 13.8773350000001,41.8504629990001 13.877777,41.850205999 13.878204,41.849957999 13.878772,41.849566999 13.879641,41.849070999 13.8804040000001,41.848510999 13.881331,41.8478269990001 13.8816110000001,41.8476219990001 13.8826300000001,41.846893999 13.8833550000001,41.8463869990001 13.8842960000001,41.845747999 13.8844110000001,41.845694999 13.8848770000001,41.8454109990001 13.885473,41.8451199990001 13.88599,41.844935999 13.886668,41.844734999 13.8871760000001,41.8446319990001 13.8878060000001,41.844484999 13.888245,41.844371999 13.8886190000001,41.844411999 13.889107,41.844506999 13.8895900000001,41.8447629990001 13.8900870000001,41.8450749990001 13.8904660000001,41.8451859990001 13.890728,41.845116999 13.8910060000001,41.8447139990001 13.890949,41.8438849990001 13.890818,41.843288999 13.890611,41.842656999 13.890538,41.841890999 13.8905530000001,41.8412239990001 13.8903800000001,41.8407809990001 13.89041,41.840546999 13.890682,41.840297999 13.8910300000001,41.8398149990001 13.891627,41.8398389990001 13.892282,41.839934999 13.892931,41.8403099990001 13.8932340000001,41.8407729990001 13.8938140000001,41.8415169990001 13.8943350000001,41.842097999 13.8951940000001,41.8426289990001 13.89592,41.843022999 13.89601,41.8433479990001 13.896041,41.8436369990001 13.896126,41.8439979990001 13.896153,41.8447459990001 13.8962480000001,41.8453049990001 13.8968390000001,41.8461389990001 13.8968790000001,41.8464279990001 13.897025,41.847023999 13.8976640000001,41.8474889990001 13.8980500000001,41.8476639990001 13.89851,41.847632999 13.898851,41.8474379990001 13.8994720000001,41.847073999 13.9002120000001,41.8468379990001 13.9005970000001,41.8473549990001 13.901125,41.8476939990001 13.9015690000001,41.8479859990001 13.9020370000001,41.848242999 13.902547,41.848355999 13.9029360000001,41.848394999 13.9036540000001,41.848464999 13.903877,41.848737999 13.904189,41.8491279990001 13.9043320000001,41.8492189990001 13.904594,41.849167999 13.904884,41.849206999 13.905089,41.849253999 13.9054170000001,41.848941999 13.905765,41.848448999 13.9059540000001,41.8482709990001 13.9065800000001,41.848285999 13.9066490000001,41.8482959990001 13.906888,41.8482349990001 13.9074880000001,41.848087999 13.9081400000001,41.848012999 13.908754,41.8479649990001 13.909434,41.847952999 13.9097370000001,41.8480999990001 13.9103670000001,41.8486549990001 13.910824,41.849010999 13.911323,41.8492859990001 13.912046,41.8494459990001 13.912723,41.849956999 13.913327,41.8502779990001 13.914134,41.8507719990001 13.914527,41.850991999 13.915314,41.851367999 13.9157960000001,41.851660999 13.9166220000001,41.852019999 13.917228,41.8522599990001 13.9179540000001,41.8525999990001 13.9187430000001,41.8528959990001 13.9190600000001,41.853087999 13.919592,41.8529309990001 13.9202750000001,41.852495999 13.9209450000001,41.851997999 13.9217620000001,41.851419999 13.9223910000001,41.850993999 13.9229760000001,41.8505309990001 13.9238780000001,41.849935999 13.9245710000001,41.8494199990001 13.9251130000001,41.8491279990001 13.926028,41.848577999 13.926233,41.847975999 13.9262210000001,41.847201999 13.925845,41.845900999 13.9256120000001,41.8454219990001 13.925279,41.844931999 13.9252060000001,41.8448049990001 13.9250060000001,41.844478999 13.9256150000001,41.843673999 13.926044,41.8432999990001 13.9264420000001,41.8429619990001 13.9263970000001,41.842933999 13.9263330000001,41.842698999 13.9264700000001,41.842096999 13.926773,41.841532999 13.9272340000001,41.840815999 13.9274770000001,41.8405569990001 13.928029,41.8401749990001 13.928328,41.839817999 13.928638,41.8393339990001 13.9289600000001,41.8386169990001 13.929112,41.8383479990001 13.9292800000001,41.838060999 13.9293480000001,41.8377199990001 13.9294640000001,41.837324999 13.929405,41.837251999 13.929623,41.8367679990001 13.930078,41.836285999 13.930487,41.835811999 13.9306290000001,41.8352819990001 13.93073,41.8348779990001 13.930845,41.8345629990001 13.9309210000001,41.8342489990001 13.931268,41.833837999 13.93136,41.8337759990001 13.931637,41.833633999 13.9317770000001,41.833544999 13.931996,41.8333939990001 13.9320890000001,41.8333319990001 13.932223,41.8332159990001 13.932482,41.8329839990001 13.93264,41.832823999 13.932783,41.8326449990001 13.9328870000001,41.832483999 13.9329760000001,41.832349999 13.933024,41.8322639990001 13.933032,41.8322509990001 13.933098,41.832079999 13.93312,41.831846999 13.9330850000001,41.8317289990001 13.932847,41.831492999 13.9328090000001,41.8312309990001 13.932559,41.8308509990001 13.932425,41.8304889990001 13.9324060000001,41.830344999 13.932396,41.8301559990001 13.9323660000001,41.829866999 13.93228,41.829649999 13.932196,41.829648999 13.931944,41.829619999 13.9316920000001,41.8293469990001 13.9315490000001,41.829012999 13.931522,41.828876999 13.931609,41.8285269990001 13.9318870000001,41.828186999 13.9322100000001,41.827865999 13.9323890000001,41.827254999 13.932422,41.827147999 13.9324500000001,41.826940999 13.9325170000001,41.8267699990001 13.9326160000001,41.826536999 13.9329960000001,41.826332999 13.933518,41.826022999 13.9338000000001,41.825799999 13.933904,41.8256479990001 13.933974,41.825594999 13.9341150000001,41.825235999 13.9341170000001,41.8249029990001 13.933882,41.8245669990001 13.9337350000001,41.824358999 13.9337770000001,41.823953999 13.9340030000001,41.823811999 13.93476,41.8233319990001 13.9353390000001,41.822895999 13.935704,41.8224309990001 13.935659,41.821881999 13.93577,41.8212339990001 13.9357390000001,41.8209639990001 13.93542,41.8203389990001 13.9353390000001,41.819986999 13.935412,41.8195919990001 13.935526,41.819330999 13.935553,41.819178999 13.935666,41.8189899990001 13.93557,41.818610999 13.935504,41.8182229990001 13.935459,41.8176739990001 13.9354680000001,41.8173399990001 13.935487,41.8172509990001 13.9356240000001,41.8169999990001 13.9358290000001,41.816766999 13.936175,41.816472999 13.936582,41.816179999 13.9370260000001,41.8159229990001 13.937287,41.815303999 13.937279,41.8150959990001 13.9372940000001,41.814807999 13.9373420000001,41.814466999 13.9372100000001,41.814023999 13.937131,41.813320999 13.9372250000001,41.8129969990001 13.937197,41.812645999 13.9371580000001,41.8123929990001 13.9372270000001,41.811835999 13.937261,41.8114669990001 13.937176,41.810960999 13.937016,41.810689999 13.9369,41.8104539990001 13.936655,41.8101819990001 13.9366240000001,41.8099379990001 13.936339,41.809494999 13.936289,41.809340999 13.9362180000001,41.8091509990001 13.9360970000001,41.808816999 13.936108,41.8084659990001 13.9361940000001,41.8081329990001 13.9361880000001,41.807808999 13.936162,41.8076549990001 13.936067,41.807491999 13.935887,41.8070769990001 13.93584,41.8068689990001 13.9359010000001,41.806616999 13.9359040000001,41.806526999 13.935914,41.806436999 13.9358730000001,41.8062839990001 13.935815,41.8061299990001 13.9356340000001,41.8058129990001 13.9353600000001,41.805467999 13.935212,41.805061999 13.935098,41.8047539990001 13.9349730000001,41.8043299990001 13.9348820000001,41.804004999 13.9348150000001,41.8036979990001 13.9346400000001,41.803389999 13.9342500000001,41.803079999 13.933992,41.8027719990001 13.933746,41.8023009990001 13.9335800000001,41.801911999 13.9333990000001,41.801612999 13.93325,41.801431999 13.9331770000001,41.8013139990001 13.9331790000001,41.8007289990001 13.933326,41.8006579990001 13.933591,41.8007499990001 13.933901,41.801167999 13.934222,41.8016659990001 13.93458,41.8019849990001 13.9348410000001,41.8022299990001 13.935169,41.802538999 13.9354890000001,41.802830999 13.9358730000001,41.8030859990001 13.936248,41.803368999 13.936561,41.8036059990001 13.9368900000001,41.8039239990001 13.9370660000001,41.8041869990001 13.9372720000001,41.8044589990001 13.937396,41.8046679990001 13.937504,41.8048849990001 13.93762,41.8051199990001 13.9377230000001,41.805282999 13.9378320000001,41.8054369990001 13.937954,41.8055009990001 13.9378830000001,41.8052939990001 13.93773,41.8050039990001 13.937649,41.8046249990001 13.937508,41.804244999 13.9374300000001,41.803757999 13.9373630000001,41.8034239990001 13.9373660000001,41.8027759990001 13.9374740000001,41.8025069990001 13.9374520000001,41.8021909990001 13.937377,41.8016319990001 13.9373420000001,41.8012179990001 13.9373640000001,41.8010199990001 13.9373610000001,41.8005959990001 13.9372930000001,41.8002709990001 13.9370060000001,41.800133999 13.9366890000001,41.799995999 13.936268,41.799720999 13.9358110000001,41.7993929990001 13.935414,41.7988399990001 13.935096,41.798169999 13.9349730000001,41.797655999 13.9350390000001,41.797268999 13.935186,41.796927999 13.9352690000001,41.796460999 13.935145,41.795963999 13.935169,41.7956849990001 13.935139,41.795396999 13.935053,41.7951619990001 13.9352280000001,41.794928999 13.9353800000001,41.794452999 13.9354720000001,41.7941569990001 13.9355190000001,41.793868999 13.935618,41.793599999 13.935644,41.793257999 13.935686,41.7928889990001 13.9356240000001,41.792626999 13.935509,41.7923919990001 13.9352000000001,41.792199999 13.93515,41.791820999 13.93548,41.7918059990001 13.936204,41.7924159990001 13.936536,41.7928429990001 13.9366220000001,41.793311999 13.936856,41.7939709990001 13.936896,41.7941519990001 13.9371120000001,41.794585999 13.9374030000001,41.795128999 13.937689,41.7958349990001 13.937871,41.7961609990001 13.938205,41.7967849990001 13.938291,41.797001999 13.938404,41.7970569990001 13.938482,41.797003999 13.938427,41.796795999 13.938296,41.7965339990001 13.9382350000001,41.7962899990001 13.9382150000001,41.7959299990001 13.9383260000001,41.795533999 13.938565,41.7949149990001 13.938615,41.794482999 13.9385550000001,41.7942209990001 13.938433,41.7939049990001 13.9383940000001,41.793417999 13.9383530000001,41.7929859990001 13.938206,41.792515999 13.938089,41.7923259990001 13.937801,41.791980999 13.937553,41.7915189990001 13.937444,41.7910859990001 13.937371,41.790715999 13.937334,41.790381999 13.9372720000001,41.790110999 13.936969,41.7892259990001 13.936694,41.788961999 13.9364160000001,41.7887879990001 13.9362640000001,41.7885169990001 13.9361690000001,41.7883179990001 13.936162,41.7877589990001 13.936245,41.7875349990001 13.936252,41.787318999 13.936248,41.7871659990001 13.9363250000001,41.7869229990001 13.936343,41.7862659990001 13.9363930000001,41.7858609990001 13.936183,41.7854629990001 13.9360750000001,41.7852189990001 13.9360120000001,41.7850109990001 13.936021,41.7846959990001 13.9362810000001,41.784454999 13.9363300000001,41.784076999 13.9361680000001,41.7835979990001 13.936002,41.783244999 13.935905,41.782901999 13.935728,41.7824049990001 13.935772,41.782234999 13.935666,41.7821519990001 13.935368,41.7816089990001 13.9353760000001,41.7810689990001 13.935752,41.780540999 13.936273,41.780203999 13.9369110000001,41.779821999 13.937753,41.779307999 13.9383770000001,41.778871999 13.939153,41.778248999 13.9403560000001,41.7773589990001 13.9408700000001,41.776759999 13.9415480000001,41.7758029990001 13.9425160000001,41.7748839990001 13.9429470000001,41.774509999 13.9435810000001,41.7742719990001 13.944153,41.774079999 13.944601,41.7739309990001 13.945094,41.773790999 13.9457860000001,41.7736889990001 13.9464080000001,41.7735959990001 13.9471820000001,41.7735489990001 13.9479170000001,41.7735109990001 13.948501,41.7734169990001 13.9494940000001,41.7729399990001 13.950134,41.772485999 13.9502830000001,41.772388999 13.9507340000001,41.772094999 13.9511160000001,41.771846999 13.9513030000001,41.7717309990001 13.951419,41.771695999 13.9516330000001,41.7715719990001 13.951923,41.771403999 13.9520920000001,41.771350999 13.9525160000001,41.771237999 13.9527640000001,41.771149999 13.9529900000001,41.7710259990001 13.953244,41.7706949990001 13.953444,41.770408999 13.9536180000001,41.770004999 13.953831,41.769781999 13.9540890000001,41.769594999 13.95453,41.769400999 13.95487,41.769304999 13.955364,41.7691649990001 13.9559,41.7691609990001 13.956352,41.7691559990001 13.9565440000001,41.7691399990001 13.957211,41.7690919990001 13.9576660000001,41.7689789990001 13.9583230000001,41.768741999 13.95896,41.768449999 13.959735,41.768132999 13.960132,41.767929999 13.9608200000001,41.7676749990001 13.961146,41.767523999 13.961377,41.767410999 13.9616350000001,41.7672859990001 13.9625130000001,41.766878999 13.9631630000001,41.7665969990001 13.963512,41.766428999 13.9636990000001,41.7663409990001 13.963893,41.7662519990001 13.9640390000001,41.7662089990001 13.9644420000001,41.766085999 13.9653050000001,41.7658689990001 13.9663190000001,41.7657429990001 13.9670800000001,41.765631999 13.967696,41.7654939990001 13.9686370000001,41.765294999 13.969676,41.7650429990001 13.970695,41.7647729990001 13.971052,41.7646139990001 13.971192,41.764506999 13.971618,41.764348999 13.972073,41.7642359990001 13.972678,41.763997999 13.973443,41.7639869990001 13.974185,41.764038999 13.9749170000001,41.7640989990001 13.975559,41.7641139990001 13.975917,41.7641619990001 13.9763340000001,41.764039999 13.976813,41.7638639990001 13.977133,41.7636869990001 13.977536,41.763518999 13.9779,41.7633689990001 13.978479,41.7632119990001 13.9787260000001,41.7631069990001 13.9792840000001,41.7629039990001 13.980133,41.762641999 13.980916,41.7625589990001 13.9816060000001,41.7625199990001 13.982311,41.7625169990001 13.9832680000001,41.7624529990001 13.9837430000001,41.762457999 13.984378,41.7624719990001 13.984861,41.7624309990001 13.9853600000001,41.7624089990001 13.9856970000001,41.7623579990001 13.986097,41.762054999 13.986365,41.7617779990001 13.986476,41.7616619990001 13.9866490000001,41.761473999 13.986753,41.7613489990001 13.9868960000001,41.761151999 13.987086,41.7609469990001 13.98729,41.7607869990001 13.987539,41.7606269990001 13.9876340000001,41.760500999 13.987849,41.760484999 13.9879100000001,41.7605129990001 13.9879270000001,41.7607379990001 13.9878850000001,41.7610799990001 13.987846,41.7611249990001 13.9878590000001,41.761466999 13.9879570000001,41.761269999 13.988138,41.761063999 13.9882880000001,41.760929999 13.9883320000001,41.7612549990001 13.9883520000001,41.761588999 13.988388,41.761678999 13.988913,41.761268999 13.9891690000001,41.7611629990001 13.989161,41.7614339990001 13.988997,41.761827999 13.9889230000001,41.7622509990001 13.989264,41.762622999 13.989769,41.763113999 13.9903160000001,41.763541999 13.990641,41.7639409990001 13.9908390000001,41.7642489990001 13.990981,41.764349999 13.991704,41.764490999 13.992179,41.764738999 13.992446,41.7650649990001 13.9926340000001,41.7653999990001 13.992686,41.7654729990001 13.993185,41.7656659990001 13.993971,41.765753999 13.994877,41.7659419990001 13.995642,41.7659399990001 13.996515,41.7661639990001 13.9968410000001,41.7662839990001 13.997243,41.7663949990001 13.997326,41.766449999 13.9979930000001,41.7666629990001 13.9991650000001,41.766879999 14.00008,41.767013999 14.0008270000001,41.7671109990001 14.001812,41.7672009990001 14.0027470000001,41.767172999 14.003563,41.7669819990001 14.004515,41.766899999 14.0055980000001,41.767034999 14.0067570000001,41.7672069990001 14.0075370000001,41.767231999 14.008063,41.767299999 14.0091660000001,41.7677689990001 14.009355,41.7678509990001 14.009552,41.7678979990001 14.0102400000001,41.767930999 14.0113040000001,41.7676789990001 14.012193,41.767352999 14.0127580000001,41.7671599990001 14.0134630000001,41.7674089990001 14.0141310000001,41.767846999 14.01469,41.768094999 14.015358,41.768316999 14.015547,41.7683909990001 14.0163890000001,41.768631999 14.0170400000001,41.7688899990001 14.018135,41.7689079990001 14.0189340000001,41.768770999 14.019891,41.7685269990001 14.0207070000001,41.768335999 14.0214530000001,41.768476999 14.022229,41.7686819990001 14.022886,41.7689759990001 14.023853,41.7691639990001 14.024689,41.7690449990001 14.0256210000001,41.768854999 14.02604,41.7686609990001 14.0261330000001,41.768111999 14.0261130000001,41.7672199990001 14.0259990000001,41.7666339990001 14.025895,41.7659839990001 14.0258680000001,41.7656059990001 14.0257320000001,41.7652439990001 14.0255980000001,41.7645949990001 14.025738,41.763973999 14.0261570000001,41.763274999 14.0264280000001,41.762592999 14.0263610000001,41.761745999 14.026624,41.761179999 14.0267450000001,41.7609209990001 14.026843,41.760686999 14.0270100000001,41.7604719990001 14.027161,41.7602669990001 14.027119,41.7600899990001 14.027454,41.759284999 14.0272140000001,41.758341999 14.026805,41.7576359990001 14.0265230000001,41.757173999 14.0262050000001,41.756693999 14.0262500000001,41.756135999 14.0261130000001,41.755688999 14.0256150000001,41.755162999 14.024908,41.7548679990001 14.0241080000001,41.754577999 14.023969,41.7544849990001 14.023854,41.7541409990001 14.0239270000001,41.753456999 14.023939,41.7533129990001 14.0238880000001,41.7532699990001 14.023991,41.7528119990001 14.02297,41.752689999 14.0225550000001,41.7530879990001 14.0224010000001,41.753347999 14.022296,41.753526999 14.0219500000001,41.754153999 14.0216760000001,41.7547009990001 14.0210250000001,41.7548129990001 14.0207290000001,41.754828999 14.0204600000001,41.7548439990001 14.020205,41.7549949990001 14.019415,41.755528999 14.018915,41.7559389990001 14.0184640000001,41.756312999 14.0181250000001,41.7564899990001 14.0179200000001,41.756474999 14.0177400000001,41.754135999 14.017485,41.753521999 14.017301,41.752979999 14.017098,41.7526169990001 14.0170620000001,41.7524799990001 14.0168410000001,41.751630999 14.0168370000001,41.7516249990001 14.016626,41.7507039990001 14.0145010000001,41.746297999 14.014036,41.7462389990001 14.0140250000001,41.7462209990001 14.0139800000001,41.746201999 14.01379,41.746164999 14.0134640000001,41.7460809990001 14.013108,41.7459879990001 14.01275,41.7459309990001 14.012574,41.745910999 14.0122260000001,41.7460429990001 14.012098,41.746203999 14.0119470000001,41.7465989990001 14.0117670000001,41.746948999 14.0116320000001,41.7471009990001 14.0112970000001,41.7472779990001 14.0109430000001,41.747310999 14.010677,41.7475069990001 14.010549,41.7476769990001 14.010229,41.747871999 14.009935,41.7479509990001 14.0094510000001,41.7480459990001 14.009129,41.748033999 14.008567,41.748163999 14.008231,41.748341999 14.0079670000001,41.7484739990001 14.007748,41.7486079990001 14.007529,41.7487679990001 14.0073790000001,41.748883999 14.0071390000001,41.748998999 14.0067240000001,41.749264999 14.006488,41.7494339990001 14.0061170000001,41.749583999 14.005776,41.7497249990001 14.0054930000001,41.7499299990001 14.0051500000001,41.750124999 14.0049930000001,41.750258999 14.004829,41.7503119990001 14.0048200000001,41.7504019990001 14.0046850000001,41.7505359990001 14.0045660000001,41.750669999 14.0044300000001,41.7508129990001 14.0042310000001,41.750999999 14.0040710000001,41.7511429990001 14.0037760000001,41.751247999 14.0032810000001,41.751342999 14.0029460000001,41.751474999 14.0026540000001,41.7516889990001 14.002488,41.751966999 14.0023600000001,41.752262999 14.0023800000001,41.752487999 14.00246,41.752758999 14.002529,41.7531109990001 14.002372,41.753343999 14.0021170000001,41.753548999 14.001833,41.7537439990001 14.0015110000001,41.7539579990001 14.0012080000001,41.754044999 14.0011280000001,41.7540719990001 14.000937,41.754132999 14.0006770000001,41.754130999 14.000508,41.754155999 13.999985,41.7542599990001 13.9997470000001,41.754239999 13.999199,41.7541269990001 13.9986030000001,41.7538689990001 13.9980830000001,41.753594999 13.997797,41.753411999 13.99737,41.7531109990001 13.996997,41.7527929990001 13.9967130000001,41.7523669990001 13.9965540000001,41.7520229990001 13.996428,41.751652999 13.9963760000001,41.751336999 13.9964450000001,41.751093999 13.9964420000001,41.750553999 13.996046,41.7503879990001 13.995936,41.7502429990001 13.9958110000001,41.750097999 13.9957160000001,41.7499529990001 13.9953640000001,41.7495269990001 13.9951310000001,41.749154999 13.9948850000001,41.7487389990001 13.994648,41.748322999 13.994468,41.748005999 13.9943040000001,41.747607999 13.9941460000001,41.7471199990001 13.993979,41.7466049990001 13.993749,41.745963999 13.993573,41.745529999 13.9933800000001,41.7451139990001 13.993184,41.744814999 13.9928390000001,41.7441729990001 13.9925950000001,41.7436929990001 13.992463,41.7433139990001 13.992335,41.742807999 13.9921590000001,41.7423289990001 13.9920270000001,41.7419409990001 13.991974,41.7417329990001 13.9919150000001,41.7414259990001 13.99181,41.741136999 13.991833,41.740920999 13.991841,41.7407049990001 13.991673,41.7404779990001 13.9913930000001,41.740124999 13.9911440000001,41.7398249990001 13.9909890000001,41.739652999 13.9908550000001,41.7393269990001 13.990732,41.738884999 13.990578,41.7384689990001 13.99033,41.7379359990001 13.9901550000001,41.7376459990001 13.9900420000001,41.737356999 13.9900670000001,41.737086999 13.990099,41.736816999 13.9900270000001,41.7366899990001 13.9899990000001,41.736590999 13.99017,41.7363129990001 13.9902700000001,41.736070999 13.990012,41.7357709990001 13.9898690000001,41.7354819990001 13.9897770000001,41.7350489990001 13.989719,41.7347419990001 13.989648,41.7343539990001 13.9896210000001,41.7340199990001 13.9895950000001,41.7336779990001 13.9896010000001,41.7334799990001 13.9896140000001,41.7333359990001 13.989605,41.733173999 13.9887350000001,41.732895999 13.9879490000001,41.732609999 13.987494,41.732470999 13.987223,41.732566999 13.986838,41.7324379990001 13.986706,41.732291999 13.986292,41.731837999 13.986005,41.7315209990001 13.9858860000001,41.7312039990001 13.9858840000001,41.7310419990001 13.9859880000001,41.7307099990001 13.986077,41.7305219990001 13.9859060000001,41.7303849990001 13.9853850000001,41.7301909990001 13.984925,41.730015999 13.984335,41.7298489990001 13.9839660000001,41.7298719990001 13.9835130000001,41.729705999 13.982808,41.7293309990001 13.982469,41.729165999 13.9823940000001,41.7291289990001 13.982177,41.7289739990001 13.982152,41.728847999 13.982286,41.7286959990001 13.9822810000001,41.7286329990001 13.981974,41.7284499990001 13.981999,41.728350999 13.982065,41.728242999 13.9818060000001,41.7279619990001 13.9817210000001,41.7277809990001 13.9817780000001,41.727474999 13.9816230000001,41.727067999 13.98139,41.726732999 13.9810420000001,41.7263789990001 13.9808650000001,41.7261969990001 13.9807520000001,41.725943999 13.9805410000001,41.7256359990001 13.980127,41.7254339990001 13.980035,41.725198999 13.9802930000001,41.7248319990001 13.9803860000001,41.7245629990001 13.98044,41.724094999 13.980201,41.7237049990001 13.9800250000001,41.7234789990001 13.979765,41.723259999 13.9792170000001,41.722993999 13.978616,41.7228899990001 13.9782040000001,41.7228679990001 13.9775530000001,41.7228889990001 13.977339,41.722877999 13.977085,41.722704999 13.976884,41.722540999 13.9765330000001,41.7223039990001 13.9760910000001,41.722272999 13.9756110000001,41.722231999 13.9752360000001,41.7219949990001 13.9748900000001,41.7216039990001 13.97455,41.721285999 13.974368,41.721031999 13.97407,41.7208039990001 13.97389,41.7204429990001 13.97407,41.719912999 13.974231,41.7194459990001 13.9742860000001,41.7191759990001 13.974429,41.7185649990001 13.9745740000001,41.7181159990001 13.9746420000001,41.7177199990001 13.9743750000001,41.717050999 13.9740430000001,41.716687999 13.973535,41.7163139990001 13.97288,41.716280999 13.9722610000001,41.716491999 13.9721290000001,41.716535999 13.9719210000001,41.7165879990001 13.971214,41.7164559990001 13.9709140000001,41.7162999990001 13.9706400000001,41.7162519990001 13.970402,41.7162949990001 13.970249,41.716311999 13.9700560000001,41.7163459990001 13.9698920000001,41.7162279990001 13.969462,41.7158269990001 13.9689950000001,41.7153999990001 13.968619,41.7150089990001 13.9681,41.714526999 13.9676040000001,41.7140719990001 13.9674200000001,41.7138639990001 13.9672440000001,41.713627999 13.9671440000001,41.713512999 13.966774,41.713091999 13.9663580000001,41.7127369990001 13.9659830000001,41.7122829990001 13.9655970000001,41.711964999 13.9654120000001,41.711800999 13.9651890000001,41.7115919990001 13.9647650000001,41.7112729990001 13.964233,41.7107629990001 13.963965,41.7107339990001 13.963022,41.7105989990001 13.962184,41.7105109990001 13.9617210000001,41.710407999 13.961402,41.7103509990001 13.9609570000001,41.7104189990001 13.960808,41.710317999 13.9606860000001,41.709848999 13.960276,41.709529999 13.960003,41.709238999 13.9597820000001,41.708813999 13.959617,41.708496999 13.959483,41.7081449990001 13.959397,41.707773999 13.9593150000001,41.7074669990001 13.959142,41.707186999 13.9590900000001,41.706690999 13.9590620000001,41.706401999 13.958609,41.7058219990001 13.95838,41.7055589990001 13.958374,41.705323999 13.958579,41.7049209990001 13.9584790000001,41.704487999 13.958379,41.7042699990001 13.958426,41.7040279990001 13.958474,41.7035059990001 13.9584980000001,41.703271999 13.95897,41.703086999 13.9596020000001,41.702930999 13.9602770000001,41.7028829990001 13.960929,41.702797999 13.961579,41.702596999 13.9618810000001,41.702257999 13.962054,41.701880999 13.962009,41.701654999 13.9616350000001,41.7011839990001 13.9610000000001,41.7005649990001 13.9607320000001,41.7003379990001 13.960161,41.699800999 13.9597170000001,41.6991849990001 13.9595650000001,41.698930999 13.959371,41.6981279990001 13.959623,41.6976979990001 13.9601420000001,41.697287999 13.9604170000001,41.6968489990001 13.960582,41.6964899990001 13.960541,41.6961209990001 13.960521,41.696020999 13.9605240000001,41.695954999 13.9608940000001,41.6959469990001 13.961327,41.695959999 13.961784,41.695959999 13.9621310000001,41.6959849990001 13.96254,41.695997999 13.9628280000001,41.696004999 13.963237,41.695958999 13.963598,41.695908999 13.963876,41.6958749990001 13.96426,41.695842999 13.9646690000001,41.6958369990001 13.9651020000001,41.6958319990001 13.965427,41.6957899990001 13.9656440000001,41.6957649990001 13.9661610000001,41.6957429990001 13.9670160000001,41.695659999 13.967364,41.6956899990001 13.967748,41.695729999 13.9680960000001,41.6957009990001 13.968916,41.695550999 13.969434,41.6954749990001 13.969977,41.695389999 13.9705050000001,41.6953759990001 13.971237,41.6953559990001 13.971733,41.6952879990001 13.972154,41.6952199990001 13.972611,41.6951519990001 13.973213,41.6951749990001 13.9736330000001,41.6951789990001 13.974113,41.6951969990001 13.974774,41.695206999 13.975063,41.6952049990001 13.9756630000001,41.6952019990001 13.9762640000001,41.695283999 13.976935,41.6953119990001 13.97738,41.695306999 13.9775970000001,41.6952869990001 13.9788590000001,41.695279999 13.979592,41.6953129990001 13.98006,41.6952899990001 13.9807700000001,41.6952699990001 13.9813350000001,41.695229999 13.9819370000001,41.695139999 13.9825280000001,41.6950379990001 13.9831080000001,41.6948129990001 13.983508,41.694608999 13.984027,41.694464999 13.984497,41.694419999 13.9852960000001,41.694016999 13.985827,41.6939229990001 13.9864400000001,41.6938739990001 13.9872350000001,41.6936879990001 13.987645,41.693654999 13.9882700000001,41.6935799990001 13.9888100000001,41.6936289990001 13.989314,41.6936879990001 13.9897110000001,41.6937359990001 13.9898200000001,41.693749999 13.990189,41.6938449990001 13.9905590000001,41.693884999 13.9909200000001,41.6940039990001 13.9913520000001,41.6940569990001 13.9916880000001,41.6941139990001 13.9920240000001,41.6941479990001 13.992469,41.694174999 13.992782,41.694082999 13.9940490000001,41.6937559990001 13.99442,41.6936969990001 13.994714,41.6933969990001 13.9949340000001,41.6931559990001 13.995082,41.6929729990001 13.9952420000001,41.6926999990001 13.995461,41.6925259990001 13.9958110000001,41.6924029990001 13.9961490000001,41.6923469990001 13.996536,41.6922559990001 13.99674,41.692176999 13.996993,41.6920889990001 13.997308,41.691996999 13.9976340000001,41.691882999 13.997961,41.6917819990001 13.9982140000001,41.691680999 13.9984690000001,41.6915699990001 13.9993250000001,41.6913259990001 14.000146,41.691071999 14.0005830000001,41.6908319990001 14.0009460000001,41.6906999990001 14.001223,41.690549999 14.001562,41.690389999 14.001877,41.690279999 14.002191,41.6901299990001 14.002422,41.6900199990001 14.0026760000001,41.6899139990001 14.0029910000001,41.689762999 14.003294,41.689603999 14.0036440000001,41.6894629990001 14.00402,41.6892809990001 14.004333,41.6891259990001 14.004553,41.688902999 14.0051490000001,41.688479999 14.005767,41.6881979990001 14.0065280000001,41.6878799990001 14.006989,41.6876359990001 14.0072680000001,41.687484999 14.0075580000001,41.6872989990001 14.0078130000001,41.687151999 14.008093,41.6869789990001 14.008384,41.686792999 14.008518,41.6866719990001 14.0087970000001,41.686457999 14.008942,41.6863249990001 14.0092240000001,41.686096999 14.0094790000001,41.685936999 14.009733,41.685776999 14.0104240000001,41.685368999 14.0107620000001,41.6852279990001 14.011149,41.6850689990001 14.011403,41.684962999 14.011694,41.6847989990001 14.0119720000001,41.684679999 14.012275,41.6845019990001 14.012614,41.6843519990001 14.013,41.6841889990001 14.0134,41.683998999 14.0137500000001,41.6838569990001 14.014125,41.683702999 14.0145000000001,41.683575999 14.0147660000001,41.6834519990001 14.0151050000001,41.6832879990001 14.015323,41.6831549990001 14.0155780000001,41.6830259990001 14.015831,41.682875999 14.0161600000001,41.682670999 14.01651,41.6825479990001 14.016764,41.6824329990001 14.0170660000001,41.682309999 14.0173820000001,41.6821859990001 14.0175760000001,41.6821479990001 14.017755,41.682112999 14.0182110000001,41.6821029990001 14.0184990000001,41.682105999 14.018739,41.682107999 14.0191110000001,41.6822369990001 14.019193,41.6823639990001 14.0192020000001,41.682494999 14.019481,41.6831269990001 14.0195860000001,41.6834299990001 14.019713,41.6836969990001 14.0198050000001,41.683958999 14.0199220000001,41.6841709990001 14.020073,41.6845469990001 14.020178,41.684785999 14.0202820000001,41.6850029990001 14.020434,41.6852479990001 14.0205270000001,41.6855459990001 14.0206660000001,41.685866999 14.0208050000001,41.6861739990001 14.020898,41.6863729990001 14.0210260000001,41.686630999 14.0211200000001,41.6867849990001 14.02119,41.6870009990001 14.021259,41.687172999 14.0211810000001,41.687491999 14.0211170000001,41.687756999 14.021018,41.6879999990001 14.020881,41.688227999 14.020815,41.688592999 14.02097,41.6887829990001 14.021324,41.689244999 14.021559,41.6895089990001 14.021843,41.689825999 14.0221030000001,41.690188999 14.0223500000001,41.690478999 14.0225980000001,41.6908139990001 14.022904,41.6911949990001 14.023175,41.6915039990001 14.0234340000001,41.691852999 14.0235750000001,41.6920659990001 14.0237520000001,41.6923189990001 14.0239060000001,41.6925189990001 14.0240470000001,41.692735999 14.0241990000001,41.692939999 14.0243630000001,41.6931939990001 14.0245400000001,41.6934199990001 14.024681,41.6936419990001 14.0248940000001,41.693900999 14.0251180000001,41.6941589990001 14.0252830000001,41.6943949990001 14.0254350000001,41.694602999 14.025612,41.694829999 14.0253480000001,41.695637999 14.025018,41.6960319990001 14.0247840000001,41.6963899990001 14.024526,41.6967569990001 14.024208,41.6971329990001 14.024035,41.6974559990001 14.023823,41.697935999 14.0238440000001,41.698111999 14.0238890000001,41.6983059990001 14.0239700000001,41.6985309990001 14.0240620000001,41.6988019990001 14.024215,41.6990779990001 14.02432,41.699245999 14.0246750000001,41.6996139990001 14.024995,41.6999229990001 14.0252320000001,41.7001589990001 14.025445,41.7003769990001 14.025717,41.7006669990001 14.025989,41.7009399990001 14.0262500000001,41.7011399990001 14.0264520000001,41.7013269990001 14.026595,41.7014849990001 14.0266520000001,41.7016659990001 14.026708,41.701850999 14.0267180000001,41.702035999 14.0267270000001,41.7022749990001 14.026795,41.702459999 14.0268840000001,41.7026129990001 14.027365,41.702461999 14.0276400000001,41.702238999 14.0281840000001,41.7019729990001 14.028647,41.7015989990001 14.029169,41.7010809990001 14.029529,41.7006059990001 14.029839,41.7002399990001 14.0297350000001,41.7001759990001 14.02968,41.700003999 14.0295790000001,41.699822999 14.02955,41.699759999 14.029886,41.6995469990001 14.0304810000001,41.6988939990001 14.0305220000001,41.6985609990001 14.0306180000001,41.6980129990001 14.030718,41.6975179990001 14.0308820000001,41.6965109990001 14.030762,41.695977999 14.0305530000001,41.695615999 14.030491,41.694696999 14.0304330000001,41.693948999 14.0304590000001,41.6933999990001 14.03079,41.692167999 14.0307920000001,41.6918709990001 14.0305480000001,41.6916619990001 14.030582,41.691319999 14.0309080000001,41.690709999 14.0308600000001,41.690096999 14.03079,41.6896559990001 14.0306630000001,41.6893209990001 14.03052,41.6890499990001 14.030242,41.688902999 14.0297110000001,41.688547999 14.029776,41.687755999 14.0296220000001,41.687132999 14.029592,41.686654999 14.0299240000001,41.6862799990001 14.03016,41.6858849990001 14.030113,41.6856959990001 14.0300310000001,41.6853799990001 14.030538,41.685077999 14.0305450000001,41.684627999 14.030469,41.684401999 14.0306,41.6838979990001 14.0303260000001,41.683436999 14.030159,41.682939999 14.0302140000001,41.6826879990001 14.0306160000001,41.682511999 14.031171,41.6823629990001 14.031373,41.6822749990001 14.031618,41.6818259990001 14.031645,41.6817099990001 14.031865,41.681296999 14.0322120000001,41.6807509990001 14.0324440000001,41.6804369990001 14.032694,41.680015999 14.0329590000001,41.679630999 14.0332560000001,41.679227999 14.0337040000001,41.678600999 14.034092,41.678216999 14.034523,41.6778609990001 14.034634,41.6777719990001 14.034926,41.6772609990001 14.0349220000001,41.6767109990001 14.034454,41.676049999 14.034343,41.6757429990001 14.034315,41.6752019990001 14.034295,41.6746429990001 14.034319,41.6739499990001 14.034391,41.6733559990001 14.034275,41.672940999 14.0338330000001,41.672468999 14.0326630000001,41.672044999 14.0318790000001,41.6719389990001 14.0313390000001,41.6718799990001 14.0302750000001,41.6717179990001 14.028896,41.6715889990001 14.0272800000001,41.6714949990001 14.026082,41.6714219990001 14.0254590000001,41.671325999 14.0239330000001,41.671258999 14.023314,41.671298999 14.022143,41.6713339990001 14.0209130000001,41.671575999 14.0198520000001,41.6717829990001 14.01897,41.6718559990001 14.0183870000001,41.671688999 14.017619,41.6716109990001 14.0172390000001,41.671327999 14.0175100000001,41.6707719990001 14.0181010000001,41.6702369990001 14.0185690000001,41.6699339990001 14.0189940000001,41.6695509990001 14.019457,41.668986999 14.019847,41.668530999 14.0205540000001,41.6679609990001 14.020991,41.667657999 14.0214530000001,41.667319999 14.0215690000001,41.667176999 14.0217690000001,41.6668809990001 14.021916,41.6665849990001 14.0219700000001,41.666324999 14.022002,41.6660909990001 14.0222870000001,41.665984999 14.022592,41.6659969990001 14.022978,41.6658379990001 14.0231440000001,41.6654789990001 14.0235240000001,41.665022999 14.0238600000001,41.6645749990001 14.024209,41.664163999 14.024508,41.6636799990001 14.025094,41.663018999 14.0256400000001,41.6624199990001 14.02619,41.6617039990001 14.0269680000001,41.6608009990001 14.027606,41.659994999 14.027993,41.6593409990001 14.0280760000001,41.6591529990001 14.0282100000001,41.6589919990001 14.0283020000001,41.6587759990001 14.0284120000001,41.658668999 14.0284140000001,41.658667999 14.028647,41.658490999 14.0287490000001,41.658419999 14.0290630000001,41.6581609990001 14.029349,41.657586999 14.029432,41.657362999 14.0294420000001,41.657317999 14.029724,41.657076999 14.0299240000001,41.656799999 14.0301940000001,41.656242999 14.0303940000001,41.655722999 14.0309060000001,41.654771999 14.0312470000001,41.6539369990001 14.031621,41.652976999 14.0318530000001,41.652437999 14.0322640000001,41.6520189990001 14.03272,41.6513829990001 14.0331130000001,41.6508189990001 14.0335850000001,41.6499039990001 14.034096,41.648763999 14.0347180000001,41.647706999 14.0355250000001,41.646353999 14.0360620000001,41.645114999 14.036395,41.6440459990001 14.036621,41.6432099990001 14.036802,41.6425809990001 14.0373270000001,41.641945999 14.037498,41.6418219990001 14.037782,41.6415449990001 14.037966,41.641284999 14.0380650000001,41.641087999 14.03828,41.6403329990001 14.0382950000001,41.639873999 14.0383360000001,41.639558999 14.0383430000001,41.639378999 14.038351,41.6390999990001 14.0383400000001,41.6387389990001 14.0383440000001,41.638630999 14.038398,41.6383699990001 14.0387650000001,41.6381209990001 14.039003,41.637825999 14.03907,41.637213999 14.039268,41.6369539990001 14.0395790000001,41.6368039990001 14.0397550000001,41.636543999 14.0402060000001,41.635817999 14.040621,41.6347769990001 14.040831,41.6341839990001 14.0411720000001,41.633610999 14.041365,41.633186999 14.0414420000001,41.6330189990001 14.041571,41.6325869990001 14.041661,41.6321649990001 14.0417380000001,41.6316699990001 14.041813,41.631273999 14.0419200000001,41.6308069990001 14.0419660000001,41.6303119990001 14.042062,41.6297269990001 14.042108,41.6292589990001 14.042112,41.628907999 14.041795,41.6285809990001 14.0417660000001,41.6283109990001 14.041822,41.6282209990001 14.041842,41.628076999 14.041795,41.6278869990001 14.041544,41.627398999 14.04135,41.626811999 14.0413570000001,41.626613999 14.041345,41.6262889990001 14.0413290000001,41.6260819990001 14.040889,41.625798999 14.040443,41.6256959990001 14.040085,41.6256479990001 14.039414,41.6251829990001 14.0386330000001,41.624852999 14.038235,41.624650999 14.037745,41.624475999 14.036951,41.624288999 14.0361560000001,41.624354999 14.0353250000001,41.6245909990001 14.034438,41.624898999 14.0336120000001,41.6251979990001 14.0333810000001,41.6252769990001 14.033214,41.6252489990001 14.0329090000001,41.625038999 14.032337,41.6245749990001 14.0318,41.624182999 14.031847,41.6239399990001 14.032224,41.623591999 14.03259,41.6231539990001 14.03279,41.622875999 14.0332700000001,41.6224119990001 14.0334500000001,41.6218279990001 14.033332,41.621456999 14.033195,41.621248999 14.0327300000001,41.620776999 14.03254,41.6207479990001 14.032361,41.6206389990001 14.0321890000001,41.620510999 14.03205,41.6203569990001 14.031869,41.6198509990001 14.031803,41.6195259990001 14.0317680000001,41.6191929990001 14.0317610000001,41.6191739990001 14.0320540000001,41.618636999 14.03241,41.618458999 14.032654,41.6182179990001 14.032876,41.617985999 14.032949,41.6178689990001 14.0327970000001,41.6178409990001 14.0323900000001,41.617693999 14.0322620000001,41.617646999 14.0319480000001,41.617473999 14.031706,41.6171469990001 14.031549,41.616857999 14.0316090000001,41.6166419990001 14.0315660000001,41.616344999 14.0313810000001,41.6161539990001 14.0313380000001,41.6158829990001 14.0314490000001,41.615514999 14.03151,41.6150289990001 14.031442,41.6147849990001 14.0306810000001,41.614499999 14.0300330000001,41.6142869990001 14.0295,41.6140389990001 14.0291490000001,41.6139069990001 14.029011,41.6138549990001 14.028877,41.613754999 14.0289460000001,41.613286999 14.028847,41.613051999 14.028622,41.6125009990001 14.028732,41.611708999 14.028674,41.611167999 14.028602,41.6105729990001 14.0285960000001,41.6103029990001 14.0286410000001,41.6100689990001 14.0285960000001,41.609833999 14.0286160000001,41.6096719990001 14.0285660000001,41.609563999 14.0285930000001,41.6092219990001 14.0287940000001,41.608709999 14.0288330000001,41.608421999 14.028823,41.608304999 14.0287030000001,41.608213999 14.0281660000001,41.6083359990001 14.0278980000001,41.6083419990001 14.027584,41.6084119990001 14.027474,41.6082939990001 14.027679,41.6080969990001 14.0275760000001,41.6077359990001 14.0276670000001,41.6072859990001 14.027766,41.607070999 14.0278520000001,41.6065219990001 14.0279420000001,41.605901999 14.027718,41.6057559990001 14.0277300000001,41.605178999 14.027718,41.6048279990001 14.0275580000001,41.604411999 14.027583,41.6043039990001 14.026982,41.603596999 14.0264060000001,41.603041999 14.0260250000001,41.6027959990001 14.025272,41.6025099990001 14.0240620000001,41.602229999 14.0233230000001,41.6020349990001 14.0226690000001,41.601974999 14.022279,41.6021539990001 14.0222440000001,41.6021689990001 14.0217190000001,41.602362999 14.020678,41.6025069990001 14.020005,41.602987999 14.0195130000001,41.6035869990001 14.019104,41.6039979990001 14.0183050000001,41.604161999 14.0179420000001,41.6045379990001 14.017549,41.604930999 14.0168650000001,41.6053209990001 14.0164290000001,41.605560999 14.015833,41.6058439990001 14.015432,41.605983999 14.014892,41.606411999 14.014578,41.6066979990001 14.0142000000001,41.6068289990001 14.013675,41.607040999 14.012907,41.6074219990001 14.0121070000001,41.607873999 14.011718,41.6081139990001 14.0115910000001,41.6081779990001 14.0115950000001,41.6081799990001 14.011828,41.6083439990001 14.0114300000001,41.6085659990001 14.0108520000001,41.6087049990001 14.010588,41.608774999 14.0102600000001,41.6089299990001 14.0098850000001,41.609182999 14.009484,41.609472999 14.0087570000001,41.6098759990001 14.0066800000001,41.611550999 14.0062780000001,41.6118949990001 14.0060350000001,41.6121269990001 14.0057660000001,41.612380999 14.005477,41.612603999 14.005232,41.612812999 14.0050220000001,41.613193999 14.005009,41.6135189990001 14.005003,41.6137169990001 14.004938,41.6140399990001 14.0048370000001,41.6143099990001 14.0047730000001,41.614587999 14.0047080000001,41.614862999 14.004596,41.6151359990001 14.0044360000001,41.615445999 14.0042750000001,41.6157499990001 14.004125,41.616113999 14.003928,41.6164639990001 14.0036950000001,41.6167409990001 14.003501,41.616972999 14.003183,41.6172949990001 14.0028830000001,41.6173869990001 14.0026760000001,41.617451999 14.002423,41.6174859990001 14.002195,41.6175199990001 14.0017730000001,41.617714999 14.001541,41.617874999 14.0013950000001,41.6179729990001 14.001201,41.618141999 14.0010830000001,41.6182419990001 14.001043,41.618275999 14.0007630000001,41.6185619990001 14.0006270000001,41.618816999 14.0005350000001,41.6189939990001 14.000504,41.6190549990001 14.000342,41.619386999 14.0002170000001,41.6196829990001 14.00008,41.6199609990001 13.999981,41.620211999 13.999869,41.6204319990001 13.9997700000001,41.6207059990001 13.999644,41.621028999 13.999472,41.621364999 13.9992750000001,41.621655999 13.9991590000001,41.6218309990001 13.999041,41.6220049990001 13.99882,41.622327999 13.9987090000001,41.622510999 13.998609,41.622600999 13.9984900000001,41.622711999 13.998187,41.622898999 13.99798,41.623049999 13.997819,41.623165999 13.9976300000001,41.623298999 13.997459,41.6234239990001 13.9972270000001,41.6236509990001 13.9970210000001,41.623842999 13.996679,41.624137999 13.9943430000001,41.625413999 13.9913730000001,41.628121999 13.991006,41.628455999 13.99058,41.6288699990001 13.9901810000001,41.6292109990001 13.989542,41.6298359990001 13.9890530000001,41.630326999 13.9889020000001,41.6304999990001 13.988568,41.630824999 13.988093,41.6312859990001 13.9867310000001,41.632394999 13.986632,41.632505999 13.985934,41.6327429990001 13.9857890000001,41.632819999 13.9854320000001,41.6329969990001 13.9849840000001,41.633163999 13.983599,41.633481999 13.9835860000001,41.6334849990001 13.983122,41.633678999 13.982561,41.6340249990001 13.980807,41.6351539990001 13.9799570000001,41.6361639990001 13.9792110000001,41.636562999 13.97858,41.6365029990001 13.9779120000001,41.6364339990001 13.977379,41.6366359990001 13.976911,41.637145999 13.976884,41.637279999 13.97664,41.637484999 13.9750490000001,41.6378769990001 13.974121,41.6380119990001 13.9728900000001,41.638117999 13.971819,41.6382349990001 13.97092,41.6381999990001 13.9702590000001,41.638157999 13.969458,41.638141999 13.9686120000001,41.638115999 13.9666080000001,41.637863999 13.9658660000001,41.6377039990001 13.964866,41.6373169990001 13.96394,41.636920999 13.9629430000001,41.6364349990001 13.9616600000001,41.6358289990001 13.9610040000001,41.635416999 13.960091,41.634895999 13.958987,41.6342099990001 13.958336,41.633816999 13.957775,41.6335059990001 13.9576930000001,41.6334419990001 13.9575080000001,41.6333139990001 13.957526,41.6334489990001 13.9574630000001,41.633547999 13.956891,41.6330649990001 13.956245,41.632752999 13.9557350000001,41.6325229990001 13.9556670000001,41.632288999 13.9554830000001,41.632079999 13.955185,41.631878999 13.954978,41.6317059990001 13.954082,41.6311479990001 13.9537100000001,41.6309019990001 13.953355,41.6307899990001 13.9530300000001,41.6307149990001 13.952457,41.6304939990001 13.952081,41.6303829990001 13.9519030000001,41.630254999 13.951216,41.6299329990001 13.950819,41.629712999 13.950527,41.629584999 13.949889,41.6295249990001 13.9488630000001,41.6296599990001 13.9483670000001,41.629699999 13.9482420000001,41.629329999 13.948131,41.6285629990001 13.9480350000001,41.627985999 13.94802,41.627327999 13.9478510000001,41.6264439990001 13.947463,41.6259719990001 13.9467,41.625577999 13.945799,41.625190999 13.94503,41.6249589990001 13.9441880000001,41.624608999 13.943542,41.6243509990001 13.942759,41.6240279990001 13.941922,41.623776999 13.941692,41.6236039990001 13.941025,41.6230479990001 13.9404740000001,41.6226559990001 13.939742,41.6224509990001 13.939222,41.622517999 13.938834,41.622487999 13.938051,41.622444999 13.937347,41.6223209990001 13.9368870000001,41.6221819990001 13.936519,41.6220249990001 13.9360980000001,41.6218769990001 13.9355380000001,41.621745999 13.934989,41.6217589990001 13.9343930000001,41.6217799990001 13.933411,41.621995999 13.9325020000001,41.6223029990001 13.93201,41.6226409990001 13.93202,41.622802999 13.932086,41.6231099990001 13.932268,41.623597999 13.932448,41.6238789990001 13.932528,41.623978999 13.9325000000001,41.6241489990001 13.932422,41.624670999 13.932371,41.6250489990001 13.932262,41.625326999 13.931945,41.625891999 13.9315800000001,41.626320999 13.9310380000001,41.6268289990001 13.930569,41.627130999 13.93024,41.627372999 13.9299760000001,41.6275669990001 13.9293730000001,41.628028999 13.9285620000001,41.6285979990001 13.92817,41.6289189990001 13.92776,41.6293289990001 13.927332,41.629577999 13.9268490000001,41.629878999 13.926189,41.630232999 13.925307,41.6306309990001 13.9241960000001,41.6308269990001 13.92341,41.630864999 13.922719,41.630794999 13.9227510000001,41.630975999 13.922829,41.6311479990001 13.922691,41.6315969990001 13.9224300000001,41.631882999 13.9222140000001,41.6319529990001 13.921886,41.6319859990001 13.9213580000001,41.632034999 13.92047,41.6321429990001 13.9198720000001,41.6322729990001 13.919739,41.632370999 13.919743,41.6324789990001 13.9197,41.6326319990001 13.919629,41.6329279990001 13.9195770000001,41.633314999 13.9194670000001,41.633655999 13.919344,41.6338889990001 13.9191930000001,41.6340769990001 13.9187620000001,41.634423999 13.918389,41.634645999 13.9179820000001,41.6347319990001 13.917521,41.6348449990001 13.917244,41.634913999 13.9166900000001,41.6350619990001 13.9160910000001,41.6352189990001 13.9153220000001,41.635408999 13.9148280000001,41.635593999 13.913935,41.6358469990001 13.9134500000001,41.6359859990001 13.913121,41.636045999 13.9127350000001,41.6361689990001 13.9121900000001,41.636316999 13.9117190000001,41.6364649990001 13.9113790000001,41.6365969990001 13.910962,41.6367549990001 13.910429,41.6369749990001 13.909707,41.637166999 13.9093340000001,41.6373429990001 13.90865,41.6375169990001 13.9079810000001,41.6376729990001 13.90718,41.6379259990001 13.906302,41.638205999 13.905585,41.638451999 13.9052520000001,41.6386199990001 13.905204,41.6386639990001 13.904571,41.638900999 13.9036600000001,41.639243999 13.902904,41.639515999 13.902207,41.6398149990001 13.90094,41.640325999 13.9008470000001,41.6403519990001 13.8999830000001,41.6407129990001 13.8994450000001,41.6408249990001 13.8987460000001,41.640952999 13.898177,41.641091999 13.8972640000001,41.6412809990001 13.896596,41.6414549990001 13.895795,41.641672999 13.895205,41.641783999 13.8944070000001,41.641919999 13.8938170000001,41.6420049990001 13.89315,41.642123999 13.89246,41.642234999 13.891961,41.6423379990001 13.891424,41.6424679990001 13.8907610000001,41.6426509990001 13.890544,41.642756999 13.889999,41.642886999 13.8894970000001,41.6430529990001 13.888948,41.643317999 13.8885280000001,41.6435569990001 13.8882120000001,41.643652999 13.8877450000001,41.643693999 13.8873100000001,41.6437159990001 13.88672,41.6438189990001 13.886155,41.6438669990001 13.885727,41.6438899990001 13.885347,41.6438229990001 13.8851760000001,41.6437049990001 13.8847940000001,41.6437549990001 13.8844090000001,41.6438859990001 13.8840670000001,41.6440539990001 13.883974,41.6440709990001 13.883966,41.644106999 13.8836860000001,41.644284999 13.883162,41.644423999 13.882939,41.6444939990001 13.8825860000001,41.6445709990001 13.8823400000001,41.6446049990001 13.882053,41.6447459990001 13.8819100000001,41.6447269990001 13.8817960000001,41.644716999 13.8815290000001,41.6447049990001 13.88143,41.6447039990001 13.881153,41.644800999 13.880889,41.6449059990001 13.880519,41.645046999 13.8799020000001,41.6452389990001 13.879508,41.6453969990001 13.8792030000001,41.6456009990001 13.878924,41.645769999 13.8786720000001,41.645973999 13.8786460000001,41.6460729990001 13.878472,41.646043999 13.878364,41.646060999 13.8780410000001,41.646174999 13.8778770000001,41.646245999 13.8772910000001,41.646464999 13.876919,41.6466419990001 13.876539,41.6468449990001 13.876249,41.6470589990001 13.876112,41.6472729990001 13.8760110000001,41.647569999 13.8759150000001,41.6479199990001 13.875867,41.6481719990001 13.8757590000001,41.648422999 13.8756310000001,41.6486199990001 13.875551,41.6487089990001 13.8756730000001,41.648925999 13.875865,41.6493429990001 13.87559,41.6493579990001 13.8754050000001,41.6493829990001 13.874808,41.649466999 13.874242,41.6495429990001 13.873681,41.649644999 13.8735120000001,41.6497159990001 13.8733570000001,41.649984999 13.8731330000001,41.6500989990001 13.872888,41.6501059990001 13.872826,41.6503489990001 13.8727270000001,41.6505549990001 13.872559,41.6505799990001 13.872212,41.650702999 13.871925,41.650834999 13.871472,41.650920999 13.871064,41.6510699990001 13.870913,41.6512039990001 13.8708270000001,41.6513019990001 13.870644,41.651506999 13.870419,41.6518199990001 13.8701540000001,41.651988999 13.869718,41.652046999 13.869245,41.6520429990001 13.869154,41.652050999 13.8687180000001,41.652091999 13.8686710000001,41.6521359990001 13.8686430000001,41.6522439990001 13.8685790000001,41.6523519990001 13.8684690000001,41.652656999 13.8683810000001,41.6527819990001 13.8682860000001,41.6528979990001 13.8682210000001,41.6530049990001 13.8680230000001,41.653219999 13.867781,41.6533879990001 13.867374,41.6536819990001 13.867242,41.653760999 13.867349,41.653987999 13.8674080000001,41.654230999 13.867492,41.654456999 13.8675480000001,41.654619999 13.8676610000001,41.655044999 13.8677440000001,41.655315999 13.867787,41.6556219990001 13.8677910000001,41.655928999 13.8678390000001,41.6560909990001 13.867758,41.656215999 13.867642,41.656259999 13.867305,41.6565269990001 13.866929,41.6568299990001 13.8668700000001,41.656954999 13.866877,41.656955999 13.8667600000001,41.657165999 13.867044,41.6572669990001 13.8686710000001,41.657120999 13.8686450000001,41.6572159990001 13.868324,41.6574469990001 13.8679700000001,41.6575789990001 13.867642,41.657818999 13.8675690000001,41.657925999 13.8675420000001,41.6580339990001 13.867485,41.6583479990001 13.867418,41.6587439990001 13.8673610000001,41.658851999 13.867355,41.6590229990001 13.8673460000001,41.659256999 13.867237,41.660002999 13.8671620000001,41.660380999 13.86704,41.660811999 13.8668730000001,41.6612519990001 13.866793,41.6613409990001 13.86672,41.6614569990001 13.8666720000001,41.6615469990001 13.866583,41.661662999 13.866405,41.661976999 13.866268,41.662181999 13.865953,41.662476999 13.8661670000001,41.662676999 13.86648,41.6628689990001 13.8667760000001,41.6631419990001 13.8668050000001,41.6631869990001 13.8667530000001,41.6633669990001 13.8665770000001,41.663581999 13.866321,41.6639479990001 13.866116,41.664143999 13.8653170000001,41.663694999 13.865217,41.6638829990001 13.8651980000001,41.6639909990001 13.865104,41.6643149990001 13.8649800000001,41.6645839990001 13.8648410000001,41.6648339990001 13.864879,41.6650509990001 13.8649820000001,41.665384999 13.8651610000001,41.6657019990001 13.8652280000001,41.666008999 13.8652490000001,41.666234999 13.865212,41.6664499990001 13.865084,41.6668269990001 13.865062,41.6670339990001 13.864968,41.6672409990001 13.864993,41.6677809990001 13.865218,41.668125999 13.8654250000001,41.6685239990001 13.86584,41.6691049990001 13.8662410000001,41.669684999 13.866767,41.6703479990001 13.867446,41.671281999 13.8679740000001,41.672115999 13.868612,41.6731309990001 13.8689670000001,41.6736749990001 13.869516,41.674364999 13.8699090000001,41.674701999 13.870465,41.675193999 13.8710370000001,41.675694999 13.871425,41.6759689990001 13.8718040000001,41.6762699990001 13.87273,41.6768999990001 13.8751060000001,41.678508999 13.877172,41.6800059990001 13.8791390000001,41.6816739990001 13.881361,41.6835149990001 13.8833320000001,41.6851369990001 13.8851500000001,41.686721999 13.885585,41.686995999 13.8856950000001,41.6870969990001 13.8858490000001,41.687304999 13.886466,41.688004999 13.886785,41.688304999 13.8870250000001,41.6886499990001 13.887348,41.689039999 13.887573,41.6894119990001 13.887816,41.689872999 13.8879380000001,41.690351999 13.8880310000001,41.6909289990001 13.888039,41.691334999 13.88782,41.6919539990001 13.887252,41.6928129990001 13.886766,41.6933759990001 13.8862140000001,41.694063999 13.8858520000001,41.694780999 13.8854850000001,41.695416999 13.8849010000001,41.695888999 13.8842560000001,41.696197999 13.883902,41.6964639990001 13.883741,41.6967059990001 13.8834590000001,41.6971089990001 13.8831040000001,41.6975829990001 13.882958,41.6980409990001 13.882844,41.6986879990001 13.8826750000001,41.6991459990001 13.882525,41.699666999 13.88235,41.700303999 13.882232,41.700816999 13.8822200000001,41.701581999 13.8821390000001,41.702166999 13.8820390000001,41.7028049990001 13.8816360000001,41.7033779990001 13.881291,41.7036269990001 13.8808080000001,41.703882999 13.879964,41.7043429990001 13.879711,41.704781999 13.879466,41.705211999 13.8793610000001,41.7054179990001 13.8791670000001,41.705659999 13.8785130000001,41.706202999 13.8776130000001,41.7069589990001 13.877375,41.707415999 13.877283,41.708063999 13.877142,41.708386999 13.876855,41.7086899990001 13.876406,41.7090639990001 13.8759190000001,41.709419999 13.8756240000001,41.7097499990001 13.8752880000001,41.710133999 13.8747490000001,41.710452999 13.8739790000001,41.710589999 13.87336,41.710772999 13.8725200000001,41.7111429990001 13.871945,41.711605999 13.8712340000001,41.712408999 13.870465,41.7134099990001 13.870006,41.7140179990001 13.8694990000001,41.7145179990001 13.8690330000001,41.714908999 13.8682840000001,41.7153069990001 13.8674540000001,41.715830999 13.866967,41.7161859990001 13.866339,41.716800999 13.866134,41.717024999 13.865871,41.7172829990001 13.865416,41.717818999 13.8649340000001,41.7184539990001 13.8645290000001,41.7188369990001 13.864139,41.7194909990001 13.863868,41.719973999 13.8638720000001,41.720514999 13.8641280000001,41.7210489990001 13.8643230000001,41.7216089990001 13.864492,41.722231999 13.8647120000001,41.722702999 13.864902,41.7231909990001 13.865032,41.723417999 13.8650430000001,41.7235259990001 13.8651580000001,41.723958999 13.8653150000001,41.7242399990001 13.865505,41.724520999 13.8655650000001,41.7247649990001 13.865684,41.724882999 13.865777,41.725063999 13.8658980000001,41.725308999 13.8659720000001,41.725398999 13.866117,41.7255899990001 13.8663120000001,41.7259159990001 13.86668,41.7265409990001 13.8670040000001,41.726913999 13.867421,41.7274579990001 13.867694,41.7279379990001 13.868052,41.7286619990001 13.8684700000001,41.729161999 13.868951,41.7298509990001 13.868887,41.7301209990001 13.868528,41.730332999 13.8684950000001,41.730331999 13.868183,41.730469999 13.8669640000001,41.730293999 13.86575,41.7303179990001 13.8644350000001,41.7305749990001 13.8633850000001,41.7307719990001 13.8626370000001,41.730899999 13.861616,41.7308899990001 13.860306,41.730804999 13.859449,41.7308229990001 13.8590310000001,41.730832999 13.8572600000001,41.731053999 13.8564630000001,41.731229999 13.855195,41.731618999 13.8545370000001,41.7319899990001 13.8540320000001,41.7326829990001 13.853007,41.733460999 13.8529600000001,41.7334969990001 13.852204,41.734002999 13.851724,41.7346419990001 13.851636,41.7355909990001 13.851708,41.736302999 13.851396,41.736885999 13.850267,41.7375049990001 13.8487420000001,41.7380479990001 13.8473750000001,41.738511999 13.8465210000001,41.738556999 13.8462250000001,41.738488999 13.8454980000001,41.7383189990001 13.84482,41.7381619990001 13.843403,41.738038999 13.8421300000001,41.737940999 13.8409560000001,41.7377539990001 13.8395130000001,41.7377029990001 13.83845,41.7379349990001 13.8371980000001,41.7380039990001 13.836079,41.7380919990001 13.8348940000001,41.7384309990001 13.83365,41.7387599990001 13.832551,41.7390149990001 13.831445,41.7389859990001 13.8303270000001,41.7389649990001 13.8290410000001,41.7389429990001 13.8283890000001,41.739066999 13.8276300000001,41.7391769990001 13.827434,41.739246999 13.8271560000001,41.7393519990001 13.825885,41.7398969990001 13.825158,41.740191999 13.824286,41.7405199990001 13.824266,41.740528999 13.823498,41.7408819990001 13.8231440000001,41.741233999 13.8230820000001,41.741295999 13.8226500000001,41.7418319990001 13.821446,41.7432699990001 13.821104,41.7436039990001 13.8208540000001,41.7440289990001 13.8205400000001,41.744786999 13.8202890000001,41.745351999 13.819936,41.746230999 13.8192790000001,41.7473229990001 13.818454,41.748386999 13.817667,41.749269999 13.8165950000001,41.750690999 13.8162580000001,41.751407999 13.815655,41.7521409990001 13.8150410000001,41.752782999 13.814152,41.7534399990001 13.8132900000001,41.7538989990001 13.812551,41.754134999 13.8121170000001,41.754202999 13.811633,41.7542559990001 13.8114800000001,41.754380999 13.8112140000001,41.754263999 13.8109030000001,41.7541269990001 13.81015,41.753866999 13.8093190000001,41.7533089990001 13.808728,41.7527709990001 13.808093,41.7519179990001 13.8079290000001,41.751681999 13.807624,41.751223999 13.8074730000001,41.750983999 13.8073010000001,41.7506939990001 13.805636,41.748257999 13.804781,41.748363999 13.801561,41.7487609990001 13.800416,41.748883999 13.799538,41.7488699990001 13.7990570000001,41.748887999 13.7987230000001,41.748591999 13.798686,41.7485589990001 13.798593,41.748477999 13.797802,41.7477939990001 13.7967580000001,41.747107999 13.7957890000001,41.7467419990001 13.7949310000001,41.7463499990001 13.793686,41.745399999 13.792881,41.7447519990001 13.792242,41.744091999 13.7914220000001,41.743592999 13.790756,41.743216999 13.790171,41.742966999 13.789953,41.7429799990001 13.789593,41.7430019990001 13.7880210000001,41.743439999 13.7862050000001,41.744113999 13.785175,41.7445719990001 13.783707,41.7452319990001 13.781781,41.745985999 13.7794060000001,41.7468969990001 13.778037,41.747400999 13.7766070000001,41.7480389990001 13.775065,41.7487429990001 13.7735200000001,41.7490499990001 13.7716080000001,41.749065999 13.7704410000001,41.749016999 13.7691100000001,41.7488769990001 13.7680510000001,41.748860999 13.7670650000001,41.7488729990001 13.765926,41.7486939990001 13.764775,41.748501999 13.763811,41.748567999 13.7629170000001,41.7488019990001 13.761958,41.7493049990001 13.761688,41.7495219990001 13.761495,41.749805999 13.7613240000001,41.749562999 13.76131,41.7495749990001 13.761194,41.749356999 13.76086,41.7490289990001 13.76061,41.748701999 13.760474,41.7484039990001 13.7603050000001,41.7481589990001 13.7599990000001,41.7479119990001 13.7597960000001,41.747801999 13.759425,41.747644999 13.759085,41.7475239990001 13.758567,41.7474279990001 13.758047,41.7474139990001 13.7572960000001,41.747441999 13.756496,41.7475229990001 13.756003,41.747652999 13.7554000000001,41.747807999 13.754484,41.7479699990001 13.7535270000001,41.7482199990001 13.7528340000001,41.7483569990001 13.7517100000001,41.7485789990001 13.7505610000001,41.748836999 13.749531,41.7491859990001 13.7487110000001,41.749716999 13.7484040000001,41.7502089990001 13.7483340000001,41.7504969990001 13.74832,41.7506589990001 13.7482630000001,41.7507029990001 13.747981,41.7510149990001 13.747799,41.7512209990001 13.7473810000001,41.7513779990001 13.7466880000001,41.7515599990001 13.746248,41.7516899990001 13.745759,41.751900999 13.745261,41.7522019990001 13.74479,41.7526109990001 13.743843,41.7533389990001 13.7432160000001,41.7538269990001 13.742784,41.754218999 13.742169,41.754599999 13.7413480000001,41.754923999 13.740795,41.754989999 13.7402670000001,41.7549929990001 13.7395680000001,41.7550839990001 13.738544,41.7550459990001 13.7377890000001,41.754965999 13.7368950000001,41.754919999 13.736114,41.754964999 13.7354560000001,41.754984999 13.734584,41.7549489990001 13.7336530000001,41.7548839990001 13.7329950000001,41.7548859990001 13.732339,41.7548429990001 13.731452,41.754832999 13.7305240000001,41.7549129990001 13.7298700000001,41.7550409990001 13.729181,41.755050999 13.728643,41.755143999 13.728263,41.7550679990001 13.727809,41.7547739990001 13.727626,41.7546559990001 13.727539,41.754717999 13.7274150000001,41.7547969990001 13.727341,41.7549139990001 13.7270750000001,41.7551359990001 13.726567,41.7554999990001 13.7261970000001,41.7560809990001 13.725914,41.756365999 13.7253420000001,41.7568009990001 13.7250530000001,41.756986999 13.72479,41.7571189990001 13.724229,41.757175999 13.7234970000001,41.757347999 13.722746,41.757915999 13.722178,41.7582429990001 13.722005,41.7583759990001 13.7217610000001,41.758859999 13.721504,41.759288999 13.721118,41.759626999 13.720609,41.7597659990001 13.720024,41.7599119990001 13.7194950000001,41.7599509990001 13.7191260000001,41.759964999 13.718573,41.760075999 13.7177600000001,41.760138999 13.717132,41.7601589990001 13.716504,41.7601789990001 13.715724,41.7601789990001 13.7149880000001,41.760206999 13.714057,41.760160999 13.7124200000001,41.760141999 13.71241,41.7602409990001 13.7124000000001,41.760303999 13.7124220000001,41.760574999 13.7123530000001,41.760843999 13.7122190000001,41.7612299990001 13.712096,41.7617329990001 13.711912,41.7625139990001 13.711508,41.7629509990001 13.711076,41.7633519990001 13.710657,41.7637789990001 13.7103000000001,41.7642079990001 13.710208,41.764467999 13.7100770000001,41.7649979990001 13.710027,41.765365999 13.71016,41.7662959990001 13.710471,41.7671549990001 13.710786,41.767887999 13.711127,41.768746999 13.7115010000001,41.7695259990001 13.711981,41.770386999 13.712301,41.7713899990001 13.7121930000001,41.7721999990001 13.712183,41.772550999 13.7124230000001,41.7727159990001 13.7126650000001,41.772798999 13.712932,41.7730729990001 13.7131210000001,41.773650999 13.7131650000001,41.773714999 13.713419,41.774149999 13.713694,41.7744049990001 13.7142270000001,41.7747889990001 13.714819,41.775182999 13.715108,41.775501999 13.7151890000001,41.775853999 13.7151240000001,41.7762489990001 13.7150130000001,41.776851999 13.7148030000001,41.7775159990001 13.714302,41.7786179990001 13.7138360000001,41.779350999 13.7134310000001,41.779841999 13.7127570000001,41.780365999 13.712119,41.780988999 13.711619,41.7812899990001 13.711041,41.7816799990001 13.710858,41.781893999 13.7105490000001,41.7820169990001 13.7099720000001,41.7823789990001 13.7095170000001,41.782724999 13.709234,41.783244999 13.7091150000001,41.7836399990001 13.7088900000001,41.784231999 13.7082760000001,41.7850349990001 13.708089,41.7856459990001 13.707957,41.7862469990001 13.707863,41.7866069990001 13.7082110000001,41.7869239990001 13.708133,41.7872159990001 13.707816,41.787472999 13.7073540000001,41.7876029990001 13.7066120000001,41.7874819990001 13.705565,41.7874659990001 13.704863,41.7876469990001 13.704084,41.7880299990001 13.703176,41.788357999 13.702778,41.7883849990001 13.7021540000001,41.788395999 13.701103,41.7885499990001 13.6996590000001,41.789073999 13.698265,41.7895769990001 13.6973400000001,41.790083999 13.696291,41.790765999 13.6950360000001,41.790917999 13.693855,41.7910489990001 13.6927260000001,41.7915179990001 13.6919540000001,41.7921709990001 13.6911710000001,41.792814999 13.690573,41.793221999 13.6902000000001,41.7937489990001 13.689872,41.794497999 13.689697,41.7954589990001 13.689171,41.795898999 13.6885740000001,41.7962709990001 13.687332,41.796841999 13.6862760000001,41.7973429990001 13.685394,41.7981529990001 13.6847760000001,41.798910999 13.684311,41.7998289990001 13.6839440000001,41.800711999 13.683702,41.801370999 13.6835110000001,41.8024809990001 13.6833130000001,41.8033799990001 13.683182,41.803864999 13.6830890000001,41.804295999 13.680959,41.804244999 13.6799820000001,41.804358999 13.678543,41.804657999 13.6775480000001,41.8050069990001 13.6766200000001,41.8056809990001 13.6761000000001,41.8063999990001 13.67562,41.8068939990001 13.6751790000001,41.807307999 13.6746460000001,41.8072559990001 13.674181,41.8072109990001 13.672879,41.8073219990001 13.6719670000001,41.8074739990001 13.6716950000001,41.8075199990001 13.6705910000001,41.8079929990001 13.669994,41.8083329990001 13.669424,41.8084979990001 13.669028,41.808529999 13.6671680000001,41.8086789990001 13.665849,41.809023999 13.6652120000001,41.8094219990001 13.6651420000001,41.8094659990001 13.66436,41.810014999 13.6635160000001,41.8106759990001 13.662902,41.8112679990001 13.6622100000001,41.8114219990001 13.662152,41.811434999 13.660939,41.811253999 13.6591480000001,41.811142999 13.657884,41.811118999 13.6565830000001,41.811157999 13.655221,41.8112589990001 13.65392,41.811315999 13.652478,41.8111779990001 13.6513860000001,41.811002999 13.650809,41.810977999 13.6507320000001,41.8109699990001 13.650515,41.8109659990001 13.6500740000001,41.8109469990001 13.6496300000001,41.8109419990001</coordinates></LinearRing></outerBoundaryIs></Polygon>
  </Placemark>
</Folder>
</Document></kml>
